{"type":"FeatureCollection","features":[{"type": "Feature", "geometry": {"type": "LineString", "coordinates": [[-76.394196, 2.168765], [-76.387073, 2.168999], [-76.37997, 2.169587], [-76.372904, 2.170527], [-76.365893, 2.171817], [-76.358955, 2.173454], [-76.352104, 2.175434], [-76.34536, 2.177752], [-76.338737, 2.180402], [-76.332253, 2.183378], [-76.325922, 2.186673], [-76.319762, 2.190278], [-76.313785, 2.194185], [-76.308008, 2.198384], [-76.302444, 2.202865], [-76.297106, 2.207617], [-76.292009, 2.212628], [-76.287164, 2.217887], [-76.282583, 2.22338], [-76.278277, 2.229094], [-76.274257, 2.235015], [-76.270532, 2.241129], [-76.267113, 2.24742], [-76.264006, 2.253874], [-76.261221, 2.260474], [-76.258762, 2.267204], [-76.256637, 2.274048], [-76.254851, 2.28099], [-76.253408, 2.288011], [-76.252312, 2.295096], [-76.25165, 2.301206], [-76.251203, 2.308363], [-76.251109, 2.315532], [-76.251367, 2.322698], [-76.251976, 2.329842], [-76.252936, 2.336947], [-76.254243, 2.343996], [-76.255895, 2.350971], [-76.257888, 2.357855], [-76.260216, 2.364632], [-76.262874, 2.371285], [-76.265856, 2.377798], [-76.269154, 2.384155], [-76.27276, 2.39034], [-76.276666, 2.396338], [-76.280861, 2.402135], [-76.285336, 2.407716], [-76.29008, 2.413069], [-76.294351, 2.417464], [-76.299563, 2.422356], [-76.304216, 2.426339], [-76.309852, 2.43073], [-76.315696, 2.434836], [-76.321735, 2.438646], [-76.327953, 2.442152], [-76.334336, 2.445344], [-76.340868, 2.448215], [-76.347534, 2.450758], [-76.354315, 2.452967], [-76.361198, 2.454836], [-76.368163, 2.456361], [-76.375195, 2.457538], [-76.382276, 2.458364], [-76.389389, 2.458837], [-76.396517, 2.458956], [-76.402624, 2.458776], [-76.409733, 2.458237], [-76.416806, 2.457346], [-76.423827, 2.456105], [-76.430778, 2.454516], [-76.437642, 2.452584], [-76.444404, 2.450313], [-76.451045, 2.447709], [-76.457551, 2.444778], [-76.463904, 2.441527], [-76.47009, 2.437965], [-76.476094, 2.434099], [-76.4819, 2.42994], [-76.487495, 2.425498], [-76.492865, 2.420783], [-76.497996, 2.415807], [-76.502877, 2.410582], [-76.507496, 2.405121], [-76.51184, 2.399437], [-76.515338, 2.394399], [-76.519147, 2.388338], [-76.522653, 2.382096], [-76.525848, 2.375688], [-76.528724, 2.369128], [-76.531275, 2.362433], [-76.533494, 2.35562], [-76.535376, 2.348705], [-76.536916, 2.341705], [-76.53811, 2.334637], [-76.538956, 2.327518], [-76.539451, 2.320366], [-76.539594, 2.313198], [-76.539385, 2.306032], [-76.538824, 2.298885], [-76.537913, 2.291774], [-76.536655, 2.284717], [-76.535051, 2.277732], [-76.533106, 2.270834], [-76.530825, 2.264042], [-76.528213, 2.257371], [-76.525276, 2.250839], [-76.522023, 2.24446], [-76.51846, 2.23825], [-76.514597, 2.232226], [-76.510443, 2.2264], [-76.506008, 2.220788], [-76.501302, 2.215403], [-76.496338, 2.210259], [-76.491128, 2.205367], [-76.485683, 2.20074], [-76.480019, 2.19639], [-76.474147, 2.192326], [-76.468083, 2.188559], [-76.461842, 2.185098], [-76.455438, 2.181951], [-76.448887, 2.179126], [-76.442206, 2.17663], [-76.435411, 2.174469], [-76.428517, 2.172649], [-76.421543, 2.171173], [-76.414505, 2.170045], [-76.408434, 2.169358], [-76.401322, 2.168884], [-76.394196, 2.168765]]}, "properties": {"AMENAZA": "1", "RADIO_KM": "NULL"}},{"type": "Feature", "geometry": {"type": "LineString", "coordinates": [[-76.087783, 2.459571], [-76.091897, 2.468053], [-76.095502, 2.475032], [-76.099266, 2.481926], [-76.10399, 2.490081], [-76.108096, 2.496775], [-76.112354, 2.503371], [-76.117661, 2.511155], [-76.122245, 2.517526], [-76.126974, 2.52379], [-76.131845, 2.529943], [-76.136855, 2.535981], [-76.143048, 2.543072], [-76.148356, 2.548848], [-76.154897, 2.555614], [-76.161622, 2.562197], [-76.167362, 2.567538], [-76.173223, 2.572745], [-76.180411, 2.578812], [-76.186526, 2.583714], [-76.192752, 2.588473], [-76.199085, 2.593086], [-76.205522, 2.597552], [-76.213379, 2.602713], [-76.220032, 2.606846], [-76.226778, 2.610824], [-76.233614, 2.614645], [-76.240534, 2.618306], [-76.248947, 2.622487], [-76.256044, 2.625792], [-76.264656, 2.62954], [-76.271909, 2.632479], [-76.280699, 2.635784], [-76.288091, 2.63835], [-76.297036, 2.641203], [-76.304548, 2.643391], [-76.312107, 2.645403], [-76.321237, 2.647587], [-76.328888, 2.649213], [-76.336574, 2.650661], [-76.344292, 2.651931], [-76.353588, 2.653219], [-76.361359, 2.654095], [-76.369149, 2.654791], [-76.376952, 2.655306], [-76.384765, 2.655641], [-76.394147, 2.655804], [-76.40353, 2.655706], [-76.411345, 2.655426], [-76.420711, 2.654851], [-76.428502, 2.654174], [-76.436275, 2.653317], [-76.444027, 2.65228], [-76.453294, 2.650799], [-76.460983, 2.649369], [-76.470164, 2.647419], [-76.477772, 2.645599], [-76.485335, 2.643604], [-76.492851, 2.641435], [-76.500316, 2.639093], [-76.509199, 2.636055], [-76.516536, 2.633335], [-76.525256, 2.629849], [-76.533876, 2.626123], [-76.540979, 2.622835], [-76.548005, 2.619385], [-76.556329, 2.615031], [-76.563173, 2.611227], [-76.569927, 2.607266], [-76.576589, 2.603149], [-76.583156, 2.59888], [-76.590904, 2.593558], [-76.597247, 2.588961], [-76.603483, 2.584218], [-76.609609, 2.579331], [-76.61681, 2.573283], [-76.622682, 2.568091], [-76.628434, 2.562765], [-76.635173, 2.556201], [-76.64065, 2.550589], [-76.64705, 2.54369], [-76.652238, 2.537807], [-76.657289, 2.531806], [-76.663167, 2.524452], [-76.667911, 2.518201], [-76.672509, 2.511843], [-76.677834, 2.504074], [-76.682107, 2.49749], [-76.687035, 2.48946], [-76.690971, 2.482667], [-76.694751, 2.475784], [-76.698373, 2.468816], [-76.702508, 2.460346], [-76.706408, 2.451765], [-76.709477, 2.444534], [-76.712381, 2.437233], [-76.715643, 2.428387], [-76.718176, 2.420948], [-76.720537, 2.413453], [-76.722727, 2.405905], [-76.725126, 2.396783], [-76.726934, 2.389133], [-76.728871, 2.379902], [-76.730291, 2.37217], [-76.731762, 2.362851], [-76.732792, 2.355057], [-76.733644, 2.347241], [-76.734316, 2.339407], [-76.734887, 2.329989], [-76.735165, 2.322132], [-76.735261, 2.312697], [-76.735099, 2.303263], [-76.734766, 2.295407], [-76.734253, 2.287561], [-76.733562, 2.27973], [-76.732496, 2.270355], [-76.731411, 2.262569], [-76.730149, 2.254809], [-76.728401, 2.245539], [-76.726399, 2.236321], [-76.724539, 2.228684], [-76.722504, 2.221092], [-76.720296, 2.21355], [-76.717917, 2.20606], [-76.714837, 2.197148], [-76.712084, 2.189789], [-76.70856, 2.181045], [-76.704797, 2.172402], [-76.701481, 2.165282], [-76.697289, 2.156841], [-76.69362, 2.149899], [-76.689793, 2.143043], [-76.684995, 2.134935], [-76.680828, 2.128283], [-76.676511, 2.121728], [-76.671134, 2.113997], [-76.666493, 2.107671], [-76.660734, 2.100223], [-76.65578, 2.094141], [-76.650689, 2.088175], [-76.645463, 2.082328], [-76.639018, 2.075474], [-76.633505, 2.0699], [-76.626723, 2.063382], [-76.620937, 2.058096], [-76.615031, 2.052945], [-76.607791, 2.046947], [-76.601635, 2.042103], [-76.594103, 2.03648], [-76.58771, 2.031956], [-76.579906, 2.026723], [-76.573294, 2.02253], [-76.566588, 2.01849], [-76.559792, 2.014607], [-76.551522, 2.010156], [-76.54454, 2.006623], [-76.537478, 2.003253], [-76.530341, 2.000047], [-76.523133, 1.997007], [-76.514395, 1.99358], [-76.507043, 1.990911], [-76.498143, 1.987933], [-76.490667, 1.98564], [-76.481629, 1.983119], [-76.474047, 1.98121], [-76.464893, 1.979152], [-76.457225, 1.977631], [-76.449524, 1.976288], [-76.441794, 1.975124], [-76.432486, 1.973963], [-76.424708, 1.973193], [-76.416913, 1.972604], [-76.409108, 1.972194], [-76.401295, 1.971966], [-76.391916, 1.97193], [-76.384102, 1.9721], [-76.376293, 1.97245], [-76.366937, 1.973108], [-76.359156, 1.973855], [-76.349844, 1.974989], [-76.342111, 1.97613], [-76.332868, 1.977736], [-76.325201, 1.97927], [-76.317572, 1.980981], [-76.309984, 1.982867], [-76.300938, 1.985363], [-76.293454, 1.987633], [-76.286024, 1.990076], [-76.278652, 1.99269], [-76.269888, 1.996051], [-76.262656, 1.999037], [-76.255495, 2.00219], [-76.248408, 2.005507], [-76.240006, 2.009703], [-76.233094, 2.013377], [-76.224914, 2.017995], [-76.218195, 2.022015], [-76.211571, 2.02619], [-76.20375, 2.031401], [-76.197343, 2.035908], [-76.191042, 2.040562], [-76.183623, 2.046337], [-76.177563, 2.051305], [-76.171618, 2.056412], [-76.165792, 2.061656], [-76.158961, 2.068124], [-76.153405, 2.073657], [-76.147978, 2.079318], [-76.142681, 2.085102], [-76.137518, 2.091008], [-76.131503, 2.09825], [-76.126643, 2.10441], [-76.120999, 2.111949], [-76.115564, 2.119641], [-76.111197, 2.126165], [-76.106981, 2.132788], [-76.102917, 2.139507], [-76.099008, 2.146318], [-76.094524, 2.154608], [-76.090962, 2.161609], [-76.087561, 2.168691], [-76.083695, 2.17729], [-76.080654, 2.184536], [-76.07778, 2.191851], [-76.075074, 2.199229], [-76.07205, 2.208164], [-76.069718, 2.215671], [-76.067148, 2.224748], [-76.065196, 2.232364], [-76.063419, 2.240023], [-76.061818, 2.247721], [-76.06013, 2.257005], [-76.058917, 2.264775], [-76.057883, 2.272571], [-76.057028, 2.280389], [-76.056237, 2.289793], [-76.055775, 2.297645], [-76.055494, 2.305505], [-76.055392, 2.313369], [-76.055506, 2.322806], [-76.0558, 2.330666], [-76.056389, 2.340085], [-76.057078, 2.34792], [-76.057945, 2.355736], [-76.059221, 2.365087], [-76.06048, 2.372849], [-76.061917, 2.38058], [-76.06353, 2.388276], [-76.065697, 2.397459], [-76.067695, 2.405063], [-76.070321, 2.414124], [-76.072699, 2.421616], [-76.075247, 2.429052], [-76.078528, 2.437894], [-76.081448, 2.44519], [-76.084533, 2.452417], [-76.087783, 2.459571]]}, "properties": {"AMENAZA": "2", "RADIO_KM": "NULL"}},{"type": "Feature", "geometry": {"type": "LineString", "coordinates": [[-75.730213, 2.656379], [-75.726039, 2.648048], [-75.721968, 2.639666], [-75.715093, 2.624877], [-75.711309, 2.61636], [-75.70763, 2.607796], [-75.704057, 2.599187], [-75.700591, 2.590534], [-75.697232, 2.581838], [-75.69398, 2.573102], [-75.690837, 2.564325], [-75.687802, 2.555509], [-75.684876, 2.546657], [-75.68206, 2.537768], [-75.679354, 2.528845], [-75.676758, 2.519889], [-75.672482, 2.504141], [-75.670191, 2.495101], [-75.668013, 2.486033], [-75.665946, 2.476939], [-75.663992, 2.467819], [-75.662151, 2.458676], [-75.660423, 2.44951], [-75.658807, 2.440324], [-75.657306, 2.431118], [-75.655918, 2.421894], [-75.654644, 2.412654], [-75.653485, 2.403398], [-75.652439, 2.394129], [-75.651508, 2.384847], [-75.650692, 2.375554], [-75.64954, 2.35927], [-75.649039, 2.349955], [-75.648654, 2.340634], [-75.648383, 2.331309], [-75.648228, 2.321981], [-75.648188, 2.312652], [-75.648263, 2.303324], [-75.648453, 2.293997], [-75.648758, 2.284673], [-75.649178, 2.275354], [-75.649713, 2.26604], [-75.650363, 2.256734], [-75.651128, 2.247437], [-75.652007, 2.23815], [-75.653001, 2.228875], [-75.655015, 2.212676], [-75.656323, 2.20344], [-75.657745, 2.194222], [-75.65928, 2.185021], [-75.660929, 2.175841], [-75.662691, 2.166682], [-75.664566, 2.157546], [-75.666553, 2.148434], [-75.668653, 2.139347], [-75.670864, 2.130287], [-75.673187, 2.121256], [-75.675621, 2.112254], [-75.678167, 2.103284], [-75.680822, 2.094345], [-75.683588, 2.085441], [-75.688691, 2.069944], [-75.691757, 2.06114], [-75.694931, 2.052375], [-75.698214, 2.04365], [-75.701603, 2.034967], [-75.7051, 2.026327], [-75.708702, 2.017731], [-75.712411, 2.009181], [-75.716224, 2.000677], [-75.720142, 1.992222], [-75.724165, 1.983817], [-75.72829, 1.975462], [-75.732518, 1.96716], [-75.736848, 1.958911], [-75.74128, 1.950717], [-75.745812, 1.942579], [-75.750445, 1.934498], [-75.75879, 1.920497], [-75.763693, 1.91258], [-75.768694, 1.904725], [-75.773791, 1.896932], [-75.778984, 1.889204], [-75.784272, 1.881542], [-75.789654, 1.873946], [-75.795129, 1.866417], [-75.800697, 1.858958], [-75.806356, 1.851569], [-75.812106, 1.844251], [-75.817945, 1.837005], [-75.823874, 1.829833], [-75.834459, 1.817462], [-75.840627, 1.810498], [-75.846881, 1.803611], [-75.853219, 1.796803], [-75.85964, 1.790075], [-75.866144, 1.783427], [-75.872729, 1.776861], [-75.879395, 1.770378], [-75.88614, 1.763978], [-75.892963, 1.757663], [-75.899864, 1.751434], [-75.906841, 1.745292], [-75.913893, 1.739237], [-75.921019, 1.73327], [-75.928218, 1.727394], [-75.935489, 1.721607], [-75.942831, 1.715912], [-75.950243, 1.710309], [-75.957722, 1.704798], [-75.96527, 1.699382], [-75.972883, 1.69406], [-75.980562, 1.688834], [-75.988304, 1.683704], [-75.996109, 1.678672], [-76.003975, 1.673737], [-76.011902, 1.6689], [-76.019887, 1.664163], [-76.02793, 1.659527], [-76.03603, 1.65499], [-76.044185, 1.650556], [-76.052394, 1.646223], [-76.066886, 1.63889], [-76.075237, 1.634842], [-76.083637, 1.630898], [-76.092086, 1.62706], [-76.10058, 1.623328], [-76.109121, 1.619702], [-76.117705, 1.616182], [-76.126332, 1.612771], [-76.135, 1.609467], [-76.143708, 1.606272], [-76.152455, 1.603186], [-76.161239, 1.600209], [-76.170059, 1.597342], [-76.178914, 1.594586], [-76.187802, 1.59194], [-76.196722, 1.589406], [-76.205673, 1.586983], [-76.214653, 1.584672], [-76.22366, 1.582473], [-76.239486, 1.578897], [-76.248563, 1.577009], [-76.257662, 1.575234], [-76.266782, 1.573573], [-76.275922, 1.572027], [-76.28508, 1.570594], [-76.294256, 1.569276], [-76.303447, 1.568072], [-76.312651, 1.566984], [-76.321869, 1.56601], [-76.331098, 1.565152], [-76.340336, 1.564409], [-76.349584, 1.563781], [-76.365782, 1.56296], [-76.375045, 1.562651], [-76.384311, 1.562456], [-76.393578, 1.562378], [-76.402846, 1.562415], [-76.412113, 1.562568], [-76.421377, 1.562837], [-76.430636, 1.563221], [-76.439891, 1.563721], [-76.449138, 1.564336], [-76.458378, 1.565067], [-76.467607, 1.565913], [-76.476825, 1.566874], [-76.486031, 1.56795], [-76.495222, 1.569141], [-76.51127, 1.571501], [-76.520416, 1.573007], [-76.529542, 1.574627], [-76.538648, 1.576361], [-76.547732, 1.578208], [-76.556792, 1.580168], [-76.565827, 1.582242], [-76.574836, 1.584428], [-76.583818, 1.586726], [-76.59277, 1.589137], [-76.601692, 1.591658], [-76.610582, 1.594291], [-76.619439, 1.597035], [-76.634855, 1.602102], [-76.643613, 1.605148], [-76.652334, 1.608304], [-76.661015, 1.611568], [-76.669654, 1.61494], [-76.678252, 1.618419], [-76.686806, 1.622006], [-76.695315, 1.625699], [-76.703778, 1.629498], [-76.712194, 1.633402], [-76.720561, 1.637412], [-76.728877, 1.641525], [-76.737142, 1.645742], [-76.745355, 1.650061], [-76.753514, 1.654483], [-76.767658, 1.662465], [-76.775662, 1.667164], [-76.783608, 1.671962], [-76.791494, 1.67686], [-76.799318, 1.681855], [-76.807081, 1.686948], [-76.81478, 1.692137], [-76.822415, 1.697422], [-76.829983, 1.702802], [-76.837485, 1.708275], [-76.844919, 1.713842], [-76.852284, 1.719502], [-76.859578, 1.725253], [-76.866801, 1.731094], [-76.873952, 1.737025], [-76.881028, 1.743045], [-76.88803, 1.749152], [-76.894956, 1.755347], [-76.901806, 1.761627], [-76.908577, 1.767993], [-76.915269, 1.774442], [-76.926787, 1.785928], [-76.933257, 1.792603], [-76.939644, 1.799359], [-76.945947, 1.806193], [-76.952166, 1.813106], [-76.958299, 1.820096], [-76.964345, 1.827162], [-76.970304, 1.834303], [-76.976174, 1.841517], [-76.981954, 1.848804], [-76.987645, 1.856163], [-76.993244, 1.863592], [-76.998752, 1.871091], [-77.004166, 1.878657], [-77.009487, 1.886291], [-77.014713, 1.89399], [-77.019844, 1.901754], [-77.024879, 1.909581], [-77.029817, 1.917471], [-77.034658, 1.925421], [-77.0394, 1.933432], [-77.044043, 1.941501], [-77.048586, 1.949627], [-77.053029, 1.957809], [-77.05737, 1.966046], [-77.06161, 1.974337], [-77.065747, 1.982679], [-77.06978, 1.991073], [-77.073711, 1.999516], [-77.077536, 2.008008], [-77.081257, 2.016547], [-77.084872, 2.025132], [-77.088381, 2.033761], [-77.091784, 2.042433], [-77.095079, 2.051147], [-77.098267, 2.059901], [-77.101346, 2.068694], [-77.104317, 2.077526], [-77.107179, 2.086393], [-77.109931, 2.095296], [-77.112573, 2.104232], [-77.115105, 2.1132], [-77.117526, 2.1222], [-77.119837, 2.131228], [-77.122035, 2.140285], [-77.124122, 2.149369], [-77.126096, 2.158478], [-77.127958, 2.167611], [-77.129708, 2.176767], [-77.131344, 2.185943], [-77.132867, 2.195139], [-77.134277, 2.204354], [-77.135573, 2.213585], [-77.137566, 2.229777], [-77.138548, 2.239047], [-77.139416, 2.248329], [-77.140169, 2.257621], [-77.140808, 2.266922], [-77.141332, 2.27623], [-77.141741, 2.285544], [-77.142035, 2.294862], [-77.142214, 2.304184], [-77.142279, 2.313506], [-77.142228, 2.322829], [-77.142062, 2.332151], [-77.141782, 2.341469], [-77.141386, 2.350784], [-77.140876, 2.360093], [-77.140251, 2.369394], [-77.139511, 2.378688], [-77.138657, 2.387971], [-77.137688, 2.397243], [-77.136605, 2.406502], [-77.135408, 2.415747], [-77.134096, 2.424976], [-77.132672, 2.434188], [-77.131133, 2.443382], [-77.129482, 2.452556], [-77.127717, 2.461708], [-77.125839, 2.470838], [-77.123849, 2.479944], [-77.121747, 2.489024], [-77.119533, 2.498077], [-77.117207, 2.507102], [-77.11287, 2.522824], [-77.11024, 2.531763], [-77.107499, 2.54067], [-77.104649, 2.549541], [-77.10169, 2.558377], [-77.098622, 2.567174], [-77.095445, 2.575933], [-77.092161, 2.584652], [-77.088769, 2.593328], [-77.08527, 2.601962], [-77.081665, 2.610552], [-77.077955, 2.619096], [-77.074139, 2.627593], [-77.070219, 2.636042], [-77.066194, 2.644441], [-77.062067, 2.652789], [-77.057836, 2.661085], [-77.053504, 2.669328], [-77.04907, 2.677516], [-77.044535, 2.685648], [-77.0399, 2.693723], [-77.035166, 2.70174], [-77.030333, 2.709697], [-77.025403, 2.717593], [-77.020375, 2.725426], [-77.015251, 2.733197], [-77.010032, 2.740903], [-77.004717, 2.748543], [-76.999309, 2.756117], [-76.993808, 2.763622], [-76.988214, 2.771058], [-76.982529, 2.778424], [-76.976753, 2.785718], [-76.966431, 2.798308], [-76.960411, 2.8054], [-76.954304, 2.812416], [-76.948111, 2.819355], [-76.941832, 2.826217], [-76.935469, 2.833], [-76.929023, 2.839703], [-76.922495, 2.846325], [-76.915885, 2.852865], [-76.909195, 2.859322], [-76.902426, 2.865695], [-76.895578, 2.871983], [-76.888654, 2.878186], [-76.881653, 2.884301], [-76.874577, 2.890328], [-76.867427, 2.896267], [-76.860205, 2.902116], [-76.85291, 2.907875], [-76.845545, 2.913542], [-76.838111, 2.919116], [-76.830608, 2.924598], [-76.823038, 2.929985], [-76.815402, 2.935278], [-76.807702, 2.940475], [-76.799937, 2.945575], [-76.79211, 2.950578], [-76.784222, 2.955483], [-76.776274, 2.96029], [-76.768267, 2.964996], [-76.754117, 2.972991], [-76.745955, 2.97742], [-76.737739, 2.981747], [-76.729469, 2.985971], [-76.721149, 2.990092], [-76.712777, 2.994108], [-76.704357, 2.99802], [-76.695889, 3.001826], [-76.687375, 3.005526], [-76.678815, 3.00912], [-76.670212, 3.012606], [-76.661566, 3.015985], [-76.652879, 3.019256], [-76.644153, 3.022418], [-76.635388, 3.02547], [-76.626585, 3.028414], [-76.617748, 3.031247], [-76.608875, 3.033969], [-76.59997, 3.036581], [-76.591033, 3.039081], [-76.582066, 3.04147], [-76.57307, 3.043746], [-76.564046, 3.04591], [-76.554996, 3.047961], [-76.545922, 3.049899], [-76.536824, 3.051724], [-76.527705, 3.053434], [-76.518565, 3.055031], [-76.509406, 3.056514], [-76.500229, 3.057882], [-76.491036, 3.059136], [-76.481828, 3.060274], [-76.472607, 3.061298], [-76.456442, 3.062812], [-76.447191, 3.063518], [-76.437932, 3.064109], [-76.428667, 3.064584], [-76.419396, 3.064944], [-76.410122, 3.065188], [-76.400845, 3.065316], [-76.391567, 3.065328], [-76.38229, 3.065224], [-76.373015, 3.065005], [-76.363743, 3.064669], [-76.354477, 3.064218], [-76.345216, 3.063652], [-76.335963, 3.062969], [-76.326719, 3.062172], [-76.317486, 3.061259], [-76.308264, 3.06023], [-76.299056, 3.059087], [-76.289863, 3.057829], [-76.280686, 3.056456], [-76.271527, 3.054968], [-76.262387, 3.053367], [-76.253267, 3.051651], [-76.244169, 3.049821], [-76.235095, 3.047879], [-76.226045, 3.045823], [-76.217021, 3.043654], [-76.208025, 3.041372], [-76.199057, 3.038979], [-76.19012, 3.036473], [-76.181214, 3.033857], [-76.16571, 3.02901], [-76.156899, 3.026089], [-76.148124, 3.023059], [-76.139387, 3.019918], [-76.13069, 3.016669], [-76.122034, 3.013312], [-76.11342, 3.009847], [-76.104849, 3.006274], [-76.096323, 3.002595], [-76.081514, 2.995901], [-76.073118, 2.991932], [-76.064772, 2.987857], [-76.056477, 2.983679], [-76.048234, 2.979397], [-76.040045, 2.975013], [-76.03191, 2.970527], [-76.023831, 2.96594], [-76.01581, 2.961252], [-76.007847, 2.956464], [-75.999944, 2.951578], [-75.992102, 2.946593], [-75.984323, 2.94151], [-75.976606, 2.936331], [-75.968954, 2.931055], [-75.961368, 2.925685], [-75.953849, 2.92022], [-75.946398, 2.914662], [-75.939017, 2.909011], [-75.926269, 2.898902], [-75.919083, 2.893001], [-75.911971, 2.88701], [-75.904934, 2.880932], [-75.897972, 2.874766], [-75.885974, 2.863767], [-75.879226, 2.857366], [-75.872557, 2.850881], [-75.865969, 2.844312], [-75.859463, 2.837663], [-75.853039, 2.830932], [-75.846699, 2.824122], [-75.840444, 2.817233], [-75.834274, 2.810266], [-75.828191, 2.803223], [-75.822195, 2.796105], [-75.816288, 2.788912], [-75.810469, 2.781646], [-75.804742, 2.774308], [-75.799105, 2.766899], [-75.79356, 2.75942], [-75.788108, 2.751872], [-75.78275, 2.744257], [-75.777486, 2.736576], [-75.772317, 2.728829], [-75.767244, 2.721019], [-75.762269, 2.713145], [-75.757391, 2.70521], [-75.752611, 2.697215], [-75.74793, 2.689161], [-75.74335, 2.681049], [-75.73887, 2.672881], [-75.734491, 2.664657], [-75.730213, 2.656379]]}, "properties": {"AMENAZA": "3", "RADIO_KM": "NULL"}}]}