{"type":"FeatureCollection","features":[{"type": "Feature", "geometry": {"type": "Polygon", "coordinates": [[[-76.428036, 2.384567], [-76.427567, 2.382688], [-76.426758, 2.381234], [-76.425906, 2.38065], [-76.425406, 2.379785], [-76.424862, 2.37748], [-76.425097, 2.374662], [-76.423811, 2.373665], [-76.423061, 2.372066], [-76.421107, 2.371519], [-76.420278, 2.370778], [-76.419663, 2.369564], [-76.418907, 2.364829], [-76.416654, 2.36388], [-76.411352, 2.360775], [-76.408854, 2.35805], [-76.406802, 2.353355], [-76.406422, 2.351039], [-76.406004, 2.350237], [-76.40345, 2.347368], [-76.402507, 2.347451], [-76.401633, 2.347123], [-76.399373, 2.345107], [-76.398628, 2.34268], [-76.398787, 2.340772], [-76.394498, 2.34098], [-76.390477, 2.340546], [-76.38971, 2.343308], [-76.389345, 2.346761], [-76.388365, 2.348969], [-76.386919, 2.350392], [-76.387129, 2.351843], [-76.386488, 2.353752], [-76.387064, 2.354804], [-76.388701, 2.355607], [-76.39009, 2.357533], [-76.390312, 2.358783], [-76.389904, 2.360696], [-76.38935, 2.361573], [-76.388601, 2.362037], [-76.386932, 2.362212], [-76.385918, 2.361931], [-76.384721, 2.360802], [-76.38355, 2.358088], [-76.383016, 2.35761], [-76.38238, 2.358732], [-76.383245, 2.361526], [-76.383221, 2.362512], [-76.382296, 2.364483], [-76.380938, 2.365157], [-76.379476, 2.364915], [-76.378145, 2.364193], [-76.376846, 2.362221], [-76.376504, 2.360966], [-76.376624, 2.358722], [-76.377228, 2.357291], [-76.377755, 2.353563], [-76.380216, 2.350428], [-76.375698, 2.354088], [-76.375066, 2.357359], [-76.374339, 2.359045], [-76.374645, 2.359967], [-76.374537, 2.361014], [-76.37393, 2.362196], [-76.373121, 2.362917], [-76.372926, 2.36424], [-76.372395, 2.365061], [-76.37084, 2.365748], [-76.369612, 2.365682], [-76.367446, 2.364317], [-76.366719, 2.363076], [-76.367183, 2.361356], [-76.368507, 2.360206], [-76.368526, 2.35441], [-76.37009, 2.349497], [-76.37093, 2.348372], [-76.372435, 2.347331], [-76.373664, 2.345259], [-76.375143, 2.344322], [-76.37536, 2.343439], [-76.376928, 2.341676], [-76.377149, 2.340136], [-76.378219, 2.338126], [-76.380161, 2.33733], [-76.380112, 2.336248], [-76.377624, 2.334311], [-76.375112, 2.331797], [-76.373313, 2.333121], [-76.371487, 2.333736], [-76.370841, 2.334464], [-76.371359, 2.335257], [-76.371887, 2.337584], [-76.369482, 2.341038], [-76.367534, 2.342061], [-76.365147, 2.342072], [-76.363348, 2.342603], [-76.363672, 2.343775], [-76.363291, 2.344826], [-76.360617, 2.346529], [-76.358404, 2.347272], [-76.357255, 2.347249], [-76.356203, 2.346439], [-76.355762, 2.34534], [-76.355799, 2.344192], [-76.355135, 2.34375], [-76.354304, 2.344515], [-76.353014, 2.344892], [-76.35192, 2.344616], [-76.351173, 2.343868], [-76.350828, 2.341153], [-76.351433, 2.336314], [-76.352242, 2.333519], [-76.353835, 2.329859], [-76.354487, 2.329104], [-76.355464, 2.328723], [-76.356743, 2.32885], [-76.35783, 2.329534], [-76.35904, 2.32887], [-76.359916, 2.326353], [-76.359551, 2.324701], [-76.358935, 2.326104], [-76.358049, 2.3268], [-76.356822, 2.326845], [-76.355659, 2.326267], [-76.354276, 2.323279], [-76.354488, 2.321606], [-76.355084, 2.320869], [-76.356271, 2.320231], [-76.359099, 2.320541], [-76.36161, 2.318054], [-76.363278, 2.314877], [-76.364601, 2.313991], [-76.366362, 2.313588], [-76.36718, 2.311894], [-76.368525, 2.311035], [-76.369257, 2.306988], [-76.370538, 2.30322], [-76.372586, 2.299306], [-76.374949, 2.296112], [-76.377751, 2.293299], [-76.380932, 2.290929], [-76.384424, 2.289053], [-76.388151, 2.287712], [-76.393346, 2.286802], [-76.399056, 2.286984], [-76.404599, 2.288371], [-76.409488, 2.290752], [-76.414753, 2.287529], [-76.422708, 2.283407], [-76.433728, 2.278568], [-76.442865, 2.275117], [-76.450307, 2.272715], [-76.464019, 2.26902], [-76.483351, 2.265267], [-76.499762, 2.263656], [-76.505058, 2.263595], [-76.509911, 2.264033], [-76.514849, 2.264946], [-76.519675, 2.266542], [-76.5233, 2.268324], [-76.527115, 2.271023], [-76.529877, 2.273809], [-76.532357, 2.277253], [-76.534301, 2.280931], [-76.536511, 2.286765], [-76.535756, 2.288929], [-76.534117, 2.289359], [-76.53405, 2.290045], [-76.534517, 2.291058], [-76.534191, 2.291668], [-76.530849, 2.291404], [-76.529196, 2.291939], [-76.52851, 2.292451], [-76.52737, 2.294329], [-76.527963, 2.299615], [-76.52662, 2.303305], [-76.528163, 2.305506], [-76.528348, 2.306845], [-76.529717, 2.309167], [-76.530544, 2.311438], [-76.531709, 2.313129], [-76.530927, 2.315873], [-76.52953, 2.315974], [-76.529179, 2.316824], [-76.529286, 2.319383], [-76.530583, 2.320214], [-76.530871, 2.320934], [-76.530774, 2.321891], [-76.528484, 2.323853], [-76.527682, 2.325279], [-76.526962, 2.325412], [-76.52546, 2.325018], [-76.524951, 2.325455], [-76.524314, 2.327038], [-76.522343, 2.326919], [-76.521596, 2.327797], [-76.522601, 2.327398], [-76.524461, 2.32742], [-76.525553, 2.325437], [-76.527111, 2.325805], [-76.527979, 2.325489], [-76.528676, 2.324045], [-76.531068, 2.322265], [-76.531091, 2.320398], [-76.530745, 2.319845], [-76.529612, 2.319233], [-76.529786, 2.3182], [-76.529482, 2.316853], [-76.529697, 2.316422], [-76.530718, 2.316486], [-76.531176, 2.316164], [-76.532044, 2.312978], [-76.530853, 2.311185], [-76.529935, 2.308589], [-76.528734, 2.306761], [-76.528534, 2.305343], [-76.526909, 2.303073], [-76.527076, 2.302409], [-76.527881, 2.301602], [-76.528399, 2.299811], [-76.527695, 2.295155], [-76.529148, 2.292333], [-76.530935, 2.291823], [-76.533057, 2.291896], [-76.533868, 2.292382], [-76.534455, 2.292139], [-76.535318, 2.291091], [-76.534514, 2.289813], [-76.536278, 2.289206], [-76.536654, 2.287213], [-76.537962, 2.292357], [-76.538513, 2.296489], [-76.538594, 2.301875], [-76.538214, 2.306801], [-76.537278, 2.311744], [-76.535889, 2.315801], [-76.53406, 2.319283], [-76.531512, 2.322646], [-76.528518, 2.325516], [-76.525558, 2.327718], [-76.518859, 2.33124], [-76.510829, 2.3339], [-76.497766, 2.336446], [-76.484222, 2.337896], [-76.470847, 2.338644], [-76.454704, 2.338495], [-76.438981, 2.337032], [-76.439313, 2.339638], [-76.43999, 2.341655], [-76.441044, 2.343269], [-76.442571, 2.343861], [-76.444487, 2.345205], [-76.44569, 2.345402], [-76.448056, 2.346773], [-76.449677, 2.347227], [-76.451038, 2.348203], [-76.45147, 2.349934], [-76.450492, 2.351427], [-76.452128, 2.353287], [-76.452207, 2.354912], [-76.453319, 2.358964], [-76.457513, 2.361485], [-76.458821, 2.363217], [-76.461051, 2.363924], [-76.463976, 2.362694], [-76.465966, 2.36102], [-76.467927, 2.360319], [-76.46889, 2.360343], [-76.470462, 2.36171], [-76.470957, 2.363025], [-76.470911, 2.364016], [-76.47053, 2.364774], [-76.469612, 2.365472], [-76.468655, 2.365571], [-76.467468, 2.365041], [-76.465861, 2.365771], [-76.464195, 2.367083], [-76.462239, 2.367465], [-76.460576, 2.368474], [-76.459246, 2.368547], [-76.456982, 2.367621], [-76.454951, 2.36476], [-76.452375, 2.36346], [-76.45186, 2.363413], [-76.450689, 2.36402], [-76.448778, 2.363661], [-76.447437, 2.363791], [-76.446333, 2.364432], [-76.444895, 2.364368], [-76.44309, 2.363377], [-76.44267, 2.362511], [-76.442665, 2.361483], [-76.442164, 2.360999], [-76.439778, 2.36003], [-76.435931, 2.360499], [-76.431812, 2.360149], [-76.4294, 2.358647], [-76.428446, 2.356094], [-76.426962, 2.355124], [-76.426483, 2.358954], [-76.427815, 2.36191], [-76.429823, 2.365038], [-76.430138, 2.366919], [-76.429403, 2.36829], [-76.430188, 2.369368], [-76.431605, 2.370055], [-76.433061, 2.37299], [-76.433301, 2.374434], [-76.435923, 2.376835], [-76.436415, 2.377754], [-76.436316, 2.379164], [-76.435282, 2.380059], [-76.435266, 2.381439], [-76.43826, 2.380326], [-76.439377, 2.380273], [-76.440702, 2.380546], [-76.442687, 2.381886], [-76.444743, 2.381705], [-76.446354, 2.382594], [-76.44762, 2.382354], [-76.449088, 2.381574], [-76.450027, 2.381577], [-76.451156, 2.382202], [-76.451602, 2.383234], [-76.451343, 2.384238], [-76.450386, 2.385154], [-76.446357, 2.386282], [-76.444544, 2.385981], [-76.443726, 2.385438], [-76.441619, 2.385485], [-76.439187, 2.384037], [-76.435481, 2.385311], [-76.434352, 2.385183], [-76.433359, 2.384555], [-76.433347, 2.385517], [-76.432904, 2.386373], [-76.431211, 2.387161], [-76.429323, 2.386557], [-76.428036, 2.384567]], [[-76.43443, 2.354992], [-76.436074, 2.355226], [-76.437068, 2.354685], [-76.437657, 2.35429], [-76.438459, 2.352962], [-76.439793, 2.352591], [-76.441872, 2.3536], [-76.44397, 2.355776], [-76.44505, 2.356188], [-76.447429, 2.356412], [-76.447496, 2.35568], [-76.443872, 2.352538], [-76.442881, 2.350901], [-76.442936, 2.349027], [-76.442692, 2.348725], [-76.439705, 2.347135], [-76.437495, 2.345477], [-76.436115, 2.343048], [-76.435488, 2.338485], [-76.434526, 2.336374], [-76.427674, 2.335268], [-76.420991, 2.333778], [-76.423305, 2.336714], [-76.424118, 2.33964], [-76.424925, 2.340528], [-76.426252, 2.343539], [-76.427895, 2.346099], [-76.429206, 2.350091], [-76.43191, 2.351555], [-76.43443, 2.354992]]]}, "properties": {"FENOMENOS": "NULL", "LEYENDA_1": "NULL", "LEYENDA_2": "Amenaza Alta", "VOLCAN": "Puracé", "AMENAZA": "Amenaza Alta", "AREA_KM2": "NULL"}},{"type": "Feature", "geometry": {"type": "MultiPolygon", "coordinates": [[[[-76.489473, 2.206929], [-76.491157, 2.206227], [-76.492609, 2.206343], [-76.496064, 2.205055], [-76.496475, 2.206648], [-76.498233, 2.207363], [-76.498483, 2.208536], [-76.485477, 2.213303], [-76.48623, 2.210881], [-76.488196, 2.208984], [-76.489473, 2.206929]]], [[[-76.720992, 2.510399], [-76.720368, 2.51071], [-76.719713, 2.510435], [-76.717145, 2.506845], [-76.716025, 2.506585], [-76.714714, 2.505476], [-76.713242, 2.504799], [-76.712549, 2.503368], [-76.711321, 2.502483], [-76.709764, 2.500424], [-76.707595, 2.49974], [-76.707476, 2.499328], [-76.708015, 2.497795], [-76.707347, 2.496659], [-76.705749, 2.49724], [-76.7044, 2.496878], [-76.70209, 2.498359], [-76.698026, 2.500003], [-76.693311, 2.499461], [-76.690947, 2.497209], [-76.689269, 2.496068], [-76.688447, 2.494962], [-76.687537, 2.494591], [-76.684958, 2.494983], [-76.683976, 2.495771], [-76.682335, 2.494924], [-76.681046, 2.49548], [-76.679525, 2.495649], [-76.678568, 2.496264], [-76.677817, 2.496192], [-76.6775, 2.495234], [-76.678957, 2.494048], [-76.679015, 2.493103], [-76.678213, 2.492666], [-76.676901, 2.493525], [-76.676299, 2.493357], [-76.674879, 2.49159], [-76.674832, 2.490109], [-76.67415, 2.488928], [-76.672649, 2.488505], [-76.670795, 2.488544], [-76.669227, 2.485611], [-76.667262, 2.484374], [-76.667186, 2.483604], [-76.666485, 2.483037], [-76.664018, 2.483013], [-76.662856, 2.481452], [-76.661481, 2.480824], [-76.658331, 2.481343], [-76.656976, 2.479621], [-76.655608, 2.47968], [-76.655009, 2.479373], [-76.654012, 2.47587], [-76.652619, 2.474061], [-76.651269, 2.473445], [-76.651329, 2.472912], [-76.651908, 2.472623], [-76.65141, 2.470975], [-76.65146, 2.46988], [-76.64999, 2.468063], [-76.649297, 2.467622], [-76.648534, 2.467589], [-76.646868, 2.468493], [-76.645131, 2.468401], [-76.644379, 2.46596], [-76.642401, 2.465169], [-76.640605, 2.463734], [-76.63945, 2.463945], [-76.637963, 2.463295], [-76.637241, 2.463881], [-76.635681, 2.463907], [-76.635038, 2.462711], [-76.634565, 2.462463], [-76.634437, 2.461471], [-76.632647, 2.460195], [-76.631423, 2.460223], [-76.630217, 2.461207], [-76.628921, 2.461032], [-76.628236, 2.461366], [-76.627549, 2.462392], [-76.626368, 2.462895], [-76.625278, 2.461837], [-76.62565, 2.460205], [-76.624497, 2.458759], [-76.622266, 2.45914], [-76.620917, 2.458566], [-76.619076, 2.460208], [-76.617669, 2.460567], [-76.615836, 2.459297], [-76.615306, 2.458259], [-76.614654, 2.458069], [-76.614116, 2.458253], [-76.612883, 2.459568], [-76.610889, 2.458531], [-76.610192, 2.459914], [-76.608423, 2.459691], [-76.606072, 2.460548], [-76.605253, 2.460315], [-76.605122, 2.459311], [-76.604776, 2.459262], [-76.603584, 2.460142], [-76.601277, 2.463196], [-76.597921, 2.463387], [-76.596723, 2.463822], [-76.594998, 2.463232], [-76.594249, 2.463449], [-76.593523, 2.464392], [-76.592751, 2.464787], [-76.590978, 2.464515], [-76.590592, 2.464029], [-76.590629, 2.463393], [-76.589282, 2.462691], [-76.587848, 2.462695], [-76.586748, 2.463579], [-76.585923, 2.465272], [-76.583804, 2.465688], [-76.580966, 2.467121], [-76.580501, 2.46708], [-76.580252, 2.467893], [-76.577028, 2.470819], [-76.576172, 2.472285], [-76.575787, 2.473732], [-76.57496, 2.47408], [-76.574571, 2.474697], [-76.57409, 2.474322], [-76.573059, 2.4767], [-76.571452, 2.47758], [-76.570162, 2.477579], [-76.567582, 2.474988], [-76.565541, 2.473473], [-76.560706, 2.471574], [-76.559144, 2.470664], [-76.556325, 2.469775], [-76.552078, 2.467541], [-76.546185, 2.461198], [-76.544274, 2.460506], [-76.542088, 2.458873], [-76.539461, 2.458448], [-76.538026, 2.457831], [-76.537514, 2.457332], [-76.537165, 2.455868], [-76.536549, 2.455018], [-76.532867, 2.454557], [-76.532281, 2.454096], [-76.531483, 2.452301], [-76.53065, 2.451407], [-76.525314, 2.449124], [-76.524667, 2.44811], [-76.525245, 2.447176], [-76.525258, 2.446512], [-76.524132, 2.444572], [-76.524554, 2.442967], [-76.525588, 2.441058], [-76.524947, 2.438114], [-76.524322, 2.436976], [-76.527033, 2.435083], [-76.528572, 2.434703], [-76.528816, 2.434005], [-76.528237, 2.432857], [-76.526091, 2.432146], [-76.525367, 2.431324], [-76.522956, 2.427406], [-76.523142, 2.425404], [-76.521689, 2.424215], [-76.519345, 2.423978], [-76.517451, 2.423118], [-76.515578, 2.420476], [-76.513937, 2.420178], [-76.511014, 2.418735], [-76.508276, 2.414947], [-76.507363, 2.415083], [-76.502662, 2.413985], [-76.49826, 2.413493], [-76.497626, 2.409872], [-76.496996, 2.409444], [-76.495845, 2.409512], [-76.494366, 2.40804], [-76.493106, 2.407507], [-76.491688, 2.404324], [-76.491497, 2.400593], [-76.491106, 2.399603], [-76.490851, 2.397085], [-76.491102, 2.395186], [-76.490855, 2.394611], [-76.490175, 2.394292], [-76.489185, 2.39446], [-76.487328, 2.395497], [-76.485858, 2.396966], [-76.484859, 2.396633], [-76.482303, 2.391656], [-76.480173, 2.389764], [-76.480627, 2.389011], [-76.480364, 2.387372], [-76.479719, 2.386008], [-76.480666, 2.384847], [-76.48066, 2.383757], [-76.495907, 2.386095], [-76.512547, 2.387828], [-76.532711, 2.389251], [-76.548474, 2.38957], [-76.567632, 2.389161], [-76.581649, 2.38834], [-76.596495, 2.386888], [-76.608673, 2.385315], [-76.621662, 2.383161], [-76.635412, 2.380271], [-76.653686, 2.375449], [-76.663631, 2.372227], [-76.672809, 2.368503], [-76.680093, 2.364836], [-76.688657, 2.359498], [-76.697538, 2.352874], [-76.704061, 2.347262], [-76.709439, 2.341913], [-76.715997, 2.333475], [-76.720349, 2.326368], [-76.725923, 2.314316], [-76.729839, 2.303303], [-76.732407, 2.290683], [-76.732884, 2.28326], [-76.732845, 2.27664], [-76.732336, 2.268601], [-76.730717, 2.260713], [-76.729017, 2.254317], [-76.725875, 2.245644], [-76.720819, 2.235795], [-76.71415, 2.226213], [-76.705611, 2.216069], [-76.701441, 2.21199], [-76.697603, 2.208818], [-76.691009, 2.203974], [-76.684418, 2.200242], [-76.674312, 2.195578], [-76.663442, 2.191561], [-76.654392, 2.189125], [-76.646218, 2.187686], [-76.636478, 2.18673], [-76.628438, 2.186432], [-76.612128, 2.186557], [-76.598725, 2.187237], [-76.582438, 2.188867], [-76.564224, 2.191582], [-76.550847, 2.194078], [-76.532966, 2.198193], [-76.515621, 2.202895], [-76.502303, 2.207193], [-76.50189, 2.206993], [-76.501462, 2.207485], [-76.501532, 2.207036], [-76.500921, 2.207175], [-76.499574, 2.205805], [-76.499224, 2.205805], [-76.498835, 2.206348], [-76.498467, 2.206185], [-76.497594, 2.205165], [-76.497621, 2.204129], [-76.497146, 2.203665], [-76.494523, 2.204815], [-76.492526, 2.204787], [-76.491945, 2.20562], [-76.488817, 2.206746], [-76.487711, 2.208653], [-76.486121, 2.209825], [-76.484333, 2.213732], [-76.473476, 2.218042], [-76.462631, 2.222815], [-76.450958, 2.228457], [-76.440334, 2.234019], [-76.425987, 2.242453], [-76.41237, 2.251551], [-76.400791, 2.260217], [-76.390955, 2.268855], [-76.38324, 2.27031], [-76.37632, 2.27289], [-76.369913, 2.276574], [-76.364191, 2.281263], [-76.359652, 2.286375], [-76.355932, 2.292117], [-76.353317, 2.297824], [-76.35139, 2.304398], [-76.350473, 2.31119], [-76.350538, 2.317474], [-76.351596, 2.324245], [-76.353558, 2.330522], [-76.352242, 2.333519], [-76.351441, 2.33628], [-76.350867, 2.342797], [-76.351273, 2.344021], [-76.352274, 2.344782], [-76.353313, 2.344854], [-76.354785, 2.344164], [-76.354894, 2.346809], [-76.355753, 2.347312], [-76.356698, 2.350861], [-76.356343, 2.35199], [-76.356925, 2.352323], [-76.35624, 2.353094], [-76.356443, 2.354441], [-76.358743, 2.358102], [-76.360237, 2.359317], [-76.360485, 2.363532], [-76.363181, 2.365639], [-76.36336, 2.368869], [-76.364073, 2.37015], [-76.364992, 2.370181], [-76.366306, 2.370783], [-76.368893, 2.370412], [-76.373185, 2.370685], [-76.375462, 2.371662], [-76.375951, 2.372594], [-76.378814, 2.373876], [-76.381224, 2.37637], [-76.382137, 2.376388], [-76.384107, 2.375731], [-76.387009, 2.376374], [-76.387977, 2.375958], [-76.3892, 2.376696], [-76.389887, 2.377972], [-76.390516, 2.378479], [-76.395111, 2.379489], [-76.396699, 2.380401], [-76.397687, 2.380167], [-76.399449, 2.379017], [-76.400492, 2.378828], [-76.401853, 2.377594], [-76.403089, 2.377376], [-76.405381, 2.377449], [-76.406313, 2.378396], [-76.409034, 2.379165], [-76.409854, 2.378878], [-76.411577, 2.379175], [-76.412915, 2.380072], [-76.413575, 2.381857], [-76.415519, 2.383975], [-76.416142, 2.385774], [-76.418044, 2.387005], [-76.418549, 2.388257], [-76.420312, 2.38949], [-76.421165, 2.39095], [-76.421435, 2.392409], [-76.422026, 2.393172], [-76.423249, 2.393669], [-76.42578, 2.39254], [-76.426669, 2.392507], [-76.42957, 2.395311], [-76.430687, 2.39524], [-76.431935, 2.395622], [-76.432617, 2.398457], [-76.433988, 2.399736], [-76.435902, 2.399691], [-76.436974, 2.399014], [-76.438375, 2.399187], [-76.439255, 2.39878], [-76.440166, 2.397735], [-76.442603, 2.397708], [-76.444197, 2.397057], [-76.445031, 2.396286], [-76.446269, 2.396134], [-76.447008, 2.394936], [-76.447332, 2.393595], [-76.449182, 2.392675], [-76.451433, 2.392174], [-76.453424, 2.390453], [-76.454426, 2.388202], [-76.456, 2.386106], [-76.457052, 2.385613], [-76.458634, 2.385835], [-76.459396, 2.385611], [-76.460888, 2.383578], [-76.463021, 2.383367], [-76.463706, 2.382687], [-76.465417, 2.382043], [-76.467174, 2.381686], [-76.469051, 2.381885], [-76.471447, 2.38469], [-76.473646, 2.385544], [-76.476504, 2.385985], [-76.478523, 2.389114], [-76.481496, 2.391434], [-76.483362, 2.394779], [-76.483585, 2.39596], [-76.484483, 2.39699], [-76.485852, 2.397479], [-76.488823, 2.395483], [-76.489903, 2.395315], [-76.490248, 2.39561], [-76.490164, 2.39685], [-76.491031, 2.401963], [-76.491003, 2.40394], [-76.49223, 2.40778], [-76.492629, 2.408248], [-76.494006, 2.408456], [-76.495686, 2.409964], [-76.497258, 2.410121], [-76.497516, 2.412888], [-76.497987, 2.413824], [-76.502733, 2.414338], [-76.507553, 2.41557], [-76.508532, 2.416157], [-76.510839, 2.419131], [-76.513213, 2.420398], [-76.515231, 2.420998], [-76.517029, 2.423389], [-76.519254, 2.424276], [-76.521317, 2.424521], [-76.522483, 2.425353], [-76.522198, 2.427205], [-76.523793, 2.429186], [-76.525056, 2.431728], [-76.525988, 2.432485], [-76.527712, 2.433013], [-76.528357, 2.433914], [-76.528213, 2.434403], [-76.526736, 2.434793], [-76.524569, 2.436031], [-76.523943, 2.436818], [-76.52513, 2.441051], [-76.524114, 2.442792], [-76.523688, 2.444541], [-76.523814, 2.445699], [-76.524574, 2.446749], [-76.52398, 2.448102], [-76.525227, 2.449597], [-76.530026, 2.451591], [-76.53095, 2.452452], [-76.532004, 2.454537], [-76.533281, 2.455075], [-76.535253, 2.455067], [-76.536179, 2.455389], [-76.537161, 2.457638], [-76.538272, 2.458552], [-76.541836, 2.459445], [-76.543854, 2.460822], [-76.545554, 2.461482], [-76.551755, 2.468125], [-76.55656, 2.470737], [-76.558625, 2.471214], [-76.561128, 2.47259], [-76.563167, 2.473084], [-76.56442, 2.473944], [-76.566161, 2.47459], [-76.570002, 2.478354], [-76.571663, 2.478476], [-76.572955, 2.478083], [-76.574109, 2.476277], [-76.576763, 2.474184], [-76.578401, 2.47031], [-76.581321, 2.468577], [-76.582387, 2.467555], [-76.582294, 2.467166], [-76.583549, 2.466498], [-76.587189, 2.466022], [-76.588365, 2.464316], [-76.587944, 2.463974], [-76.588659, 2.463962], [-76.588811, 2.463355], [-76.589264, 2.46355], [-76.590242, 2.464957], [-76.59261, 2.466087], [-76.593738, 2.466273], [-76.59428, 2.466082], [-76.594422, 2.465053], [-76.595194, 2.464452], [-76.598533, 2.46483], [-76.599628, 2.464286], [-76.602013, 2.464318], [-76.603121, 2.463266], [-76.603561, 2.461317], [-76.604339, 2.460737], [-76.605766, 2.461648], [-76.606596, 2.461521], [-76.60814, 2.460491], [-76.610384, 2.461032], [-76.610948, 2.460281], [-76.611795, 2.459998], [-76.613429, 2.46063], [-76.614237, 2.460336], [-76.614806, 2.458932], [-76.615417, 2.460009], [-76.617325, 2.46126], [-76.619731, 2.460981], [-76.620528, 2.460628], [-76.620521, 2.460293], [-76.621669, 2.459977], [-76.622699, 2.460321], [-76.623486, 2.460185], [-76.624376, 2.460955], [-76.624169, 2.461584], [-76.624432, 2.462973], [-76.625314, 2.463695], [-76.627321, 2.463587], [-76.629295, 2.462551], [-76.630496, 2.462756], [-76.632098, 2.462269], [-76.632928, 2.462697], [-76.63345, 2.464159], [-76.635405, 2.466394], [-76.637804, 2.466322], [-76.639262, 2.468064], [-76.641548, 2.467393], [-76.644348, 2.469415], [-76.645646, 2.469557], [-76.647131, 2.469421], [-76.648885, 2.468287], [-76.649737, 2.468381], [-76.650353, 2.469222], [-76.650423, 2.470649], [-76.651308, 2.471913], [-76.650913, 2.473487], [-76.651373, 2.47412], [-76.652372, 2.474395], [-76.654147, 2.47735], [-76.654313, 2.477895], [-76.653984, 2.479326], [-76.654805, 2.480464], [-76.655588, 2.480825], [-76.657003, 2.480202], [-76.657921, 2.481872], [-76.658807, 2.482107], [-76.661403, 2.48161], [-76.661679, 2.482688], [-76.663693, 2.48424], [-76.664102, 2.48389], [-76.666305, 2.483584], [-76.667048, 2.484962], [-76.668661, 2.485789], [-76.669492, 2.486985], [-76.669956, 2.489191], [-76.670866, 2.48945], [-76.672004, 2.488877], [-76.673886, 2.489212], [-76.674521, 2.492484], [-76.676415, 2.49412], [-76.677173, 2.494236], [-76.677949, 2.493858], [-76.676912, 2.495183], [-76.677264, 2.496137], [-76.67817, 2.496882], [-76.680253, 2.496095], [-76.681267, 2.496154], [-76.682494, 2.495319], [-76.684157, 2.496689], [-76.68514, 2.495411], [-76.687193, 2.495171], [-76.691232, 2.498013], [-76.692557, 2.499455], [-76.695615, 2.500354], [-76.696384, 2.500103], [-76.698641, 2.500269], [-76.701448, 2.499098], [-76.70421, 2.497486], [-76.705584, 2.497651], [-76.707408, 2.497036], [-76.707679, 2.49784], [-76.70711, 2.499257], [-76.707256, 2.499901], [-76.709594, 2.500893], [-76.711761, 2.503548], [-76.712449, 2.50395], [-76.713153, 2.505133], [-76.714579, 2.505739], [-76.715775, 2.506821], [-76.71686, 2.507089], [-76.718252, 2.508596], [-76.71942, 2.510553], [-76.720194, 2.510971], [-76.721739, 2.510978], [-76.722042, 2.512615], [-76.72342, 2.51354], [-76.724193, 2.514614], [-76.7254, 2.515552], [-76.727143, 2.51904], [-76.714839, 2.518626], [-76.679828, 2.516437], [-76.645659, 2.513433], [-76.612132, 2.509834], [-76.590092, 2.507004], [-76.566259, 2.503171], [-76.550211, 2.499926], [-76.52822, 2.494419], [-76.507662, 2.488148], [-76.484898, 2.479866], [-76.463266, 2.470401], [-76.448659, 2.463065], [-76.441475, 2.459156], [-76.422362, 2.447656], [-76.408665, 2.438385], [-76.389372, 2.424096], [-76.378448, 2.415316], [-76.36213, 2.400766], [-76.353136, 2.391556], [-76.348872, 2.386758], [-76.340137, 2.375685], [-76.334453, 2.367226], [-76.330787, 2.360921], [-76.327531, 2.354429], [-76.324121, 2.346048], [-76.321695, 2.338098], [-76.320197, 2.331261], [-76.318278, 2.31698], [-76.317917, 2.309988], [-76.318158, 2.301676], [-76.319233, 2.292684], [-76.320659, 2.285556], [-76.322528, 2.278498], [-76.325775, 2.268825], [-76.328386, 2.262274], [-76.334117, 2.250052], [-76.340357, 2.23877], [-76.352246, 2.220383], [-76.360458, 2.209], [-76.375283, 2.19007], [-76.391058, 2.171965], [-76.407317, 2.155591], [-76.419459, 2.144616], [-76.43781, 2.12971], [-76.457563, 2.115642], [-76.475721, 2.104102], [-76.495461, 2.092915], [-76.510071, 2.085497], [-76.532028, 2.075429], [-76.55252, 2.066809], [-76.599793, 2.048314], [-76.632559, 2.036485], [-76.649178, 2.030865], [-76.671628, 2.023812], [-76.694871, 2.017181], [-76.711307, 2.012939], [-76.740573, 2.006291], [-76.769838, 2.000838], [-76.799811, 1.996166], [-76.816638, 1.993853], [-76.842441, 1.991222], [-76.860355, 1.990435], [-76.883408, 1.9909], [-76.905758, 1.992916], [-76.920381, 1.994988], [-76.932967, 1.997212], [-76.946982, 2.000169], [-76.960895, 2.003614], [-76.974172, 2.007379], [-76.995582, 2.014596], [-77.010937, 2.020941], [-77.025829, 2.028414], [-77.03926, 2.036541], [-77.050679, 2.044655], [-77.057097, 2.049813], [-77.063234, 2.055287], [-77.068932, 2.061002], [-77.074314, 2.067031], [-77.081059, 2.07554], [-77.086093, 2.082599], [-77.090859, 2.089866], [-77.099266, 2.104356], [-77.106441, 2.118803], [-77.109981, 2.126772], [-77.116495, 2.142974], [-77.120706, 2.154634], [-77.124798, 2.167201], [-77.128182, 2.179078], [-77.13032, 2.187622], [-77.1354, 2.212382], [-77.136261, 2.221646], [-77.137206, 2.238669], [-77.137293, 2.259831], [-77.136677, 2.273041], [-77.134807, 2.294102], [-77.132418, 2.311399], [-77.130986, 2.31935], [-77.127426, 2.335077], [-77.125063, 2.343467], [-77.11941, 2.359901], [-77.115162, 2.369911], [-77.11157, 2.377164], [-77.107591, 2.3842], [-77.103125, 2.391121], [-77.093973, 2.403328], [-77.084155, 2.414508], [-77.078648, 2.420126], [-77.06627, 2.431319], [-77.059386, 2.436852], [-77.053146, 2.44155], [-77.040639, 2.450226], [-77.022611, 2.461429], [-77.010109, 2.468478], [-76.997378, 2.475083], [-76.985832, 2.480598], [-76.972282, 2.486512], [-76.958528, 2.49189], [-76.936579, 2.499031], [-76.920448, 2.5032], [-76.91168, 2.505105], [-76.886103, 2.509478], [-76.839129, 2.515276], [-76.809467, 2.517855], [-76.795139, 2.518681], [-76.762519, 2.51959], [-76.727575, 2.519055], [-76.725713, 2.515267], [-76.724257, 2.514294], [-76.722877, 2.512572], [-76.722081, 2.510558], [-76.720992, 2.510399]]], [[[-76.366257, 2.370308], [-76.364152, 2.369691], [-76.363835, 2.36922], [-76.364074, 2.368186], [-76.363496, 2.365345], [-76.360901, 2.363355], [-76.360749, 2.362052], [-76.36099, 2.360848], [-76.361355, 2.360475], [-76.360769, 2.359201], [-76.359574, 2.357809], [-76.359636, 2.357451], [-76.35744, 2.355311], [-76.356744, 2.354064], [-76.356715, 2.353422], [-76.358502, 2.351752], [-76.357938, 2.350695], [-76.358337, 2.349775], [-76.357568, 2.349062], [-76.356959, 2.347505], [-76.356264, 2.347341], [-76.3562, 2.346434], [-76.357078, 2.347186], [-76.358324, 2.347288], [-76.360517, 2.346576], [-76.362934, 2.345193], [-76.36615, 2.348244], [-76.369617, 2.35094], [-76.368514, 2.354495], [-76.368507, 2.360206], [-76.367012, 2.36164], [-76.366741, 2.363181], [-76.367476, 2.364345], [-76.369612, 2.365682], [-76.370762, 2.365765], [-76.372281, 2.365157], [-76.372773, 2.365404], [-76.373856, 2.367648], [-76.372474, 2.369049], [-76.372204, 2.3702], [-76.367782, 2.369755], [-76.366257, 2.370308]]], [[[-76.435864, 2.399347], [-76.434122, 2.39931], [-76.433629, 2.398665], [-76.43203, 2.395056], [-76.430888, 2.394664], [-76.429976, 2.394921], [-76.426785, 2.392137], [-76.425634, 2.391967], [-76.423166, 2.393221], [-76.422304, 2.392915], [-76.42134, 2.390501], [-76.419836, 2.388115], [-76.418152, 2.38648], [-76.416537, 2.385615], [-76.415822, 2.383728], [-76.413912, 2.381742], [-76.413212, 2.379902], [-76.411494, 2.378683], [-76.410676, 2.378369], [-76.407286, 2.378109], [-76.405083, 2.377049], [-76.402903, 2.377038], [-76.401605, 2.377211], [-76.400734, 2.378229], [-76.399124, 2.378758], [-76.397426, 2.379913], [-76.396607, 2.379983], [-76.395285, 2.37923], [-76.390469, 2.378153], [-76.38934, 2.376336], [-76.387917, 2.375432], [-76.386212, 2.37591], [-76.384711, 2.375311], [-76.382283, 2.376102], [-76.381377, 2.376111], [-76.379076, 2.373648], [-76.376032, 2.371163], [-76.375278, 2.370688], [-76.373256, 2.370308], [-76.372962, 2.36956], [-76.374253, 2.367995], [-76.374552, 2.366875], [-76.374071, 2.365827], [-76.37266, 2.364764], [-76.373121, 2.362917], [-76.37393, 2.362196], [-76.374555, 2.360955], [-76.374645, 2.359967], [-76.374339, 2.359045], [-76.375066, 2.357359], [-76.37559, 2.35448], [-76.377565, 2.355392], [-76.376613, 2.358814], [-76.376504, 2.360966], [-76.376802, 2.362129], [-76.378145, 2.364193], [-76.379928, 2.365056], [-76.381039, 2.365148], [-76.381862, 2.364859], [-76.383043, 2.363034], [-76.383267, 2.361631], [-76.38238, 2.358732], [-76.383016, 2.35761], [-76.38355, 2.358088], [-76.385063, 2.361252], [-76.38584, 2.361893], [-76.386932, 2.362212], [-76.388507, 2.362066], [-76.38935, 2.361573], [-76.389932, 2.360621], [-76.390311, 2.358797], [-76.396533, 2.359067], [-76.402176, 2.358559], [-76.412479, 2.363665], [-76.41931, 2.366603], [-76.419664, 2.369568], [-76.420329, 2.370854], [-76.421107, 2.371519], [-76.423061, 2.372066], [-76.423811, 2.373665], [-76.425097, 2.374662], [-76.424862, 2.37748], [-76.425466, 2.379956], [-76.426758, 2.381234], [-76.427608, 2.382762], [-76.4286, 2.385772], [-76.429864, 2.386877], [-76.431192, 2.387162], [-76.432465, 2.386757], [-76.433284, 2.385709], [-76.433359, 2.384555], [-76.434352, 2.385183], [-76.435481, 2.385311], [-76.439187, 2.384037], [-76.441557, 2.385465], [-76.443726, 2.385438], [-76.44556, 2.386241], [-76.448492, 2.385873], [-76.450473, 2.385099], [-76.451514, 2.383881], [-76.452977, 2.383696], [-76.455158, 2.384849], [-76.455663, 2.385558], [-76.455788, 2.385768], [-76.45397, 2.387889], [-76.452843, 2.390277], [-76.450813, 2.391783], [-76.446809, 2.393101], [-76.446668, 2.394698], [-76.446133, 2.395594], [-76.444949, 2.395782], [-76.444047, 2.39668], [-76.442531, 2.3973], [-76.440022, 2.397223], [-76.438307, 2.398843], [-76.436841, 2.398679], [-76.435864, 2.399347]]], [[[-76.45648, 2.385366], [-76.456193, 2.384596], [-76.455477, 2.384115], [-76.45328, 2.383361], [-76.451598, 2.38349], [-76.451156, 2.382202], [-76.44987, 2.381544], [-76.446354, 2.382594], [-76.444743, 2.381705], [-76.442687, 2.381886], [-76.440677, 2.380534], [-76.439067, 2.380254], [-76.435327, 2.381496], [-76.435282, 2.380059], [-76.436316, 2.379164], [-76.436446, 2.377852], [-76.435923, 2.376835], [-76.433301, 2.374434], [-76.433114, 2.373143], [-76.432357, 2.371454], [-76.447522, 2.376257], [-76.467441, 2.381204], [-76.46503, 2.381794], [-76.462902, 2.382771], [-76.460713, 2.383093], [-76.459833, 2.384716], [-76.459121, 2.385229], [-76.45648, 2.385366]]], [[[-76.479346, 2.388679], [-76.477945, 2.386498], [-76.476646, 2.385317], [-76.474895, 2.384799], [-76.473265, 2.384883], [-76.47127, 2.384016], [-76.469765, 2.381679], [-76.480226, 2.383681], [-76.48003, 2.384794], [-76.479195, 2.385971], [-76.480028, 2.387207], [-76.480217, 2.388246], [-76.479346, 2.388679]]]]}, "properties": {"FENOMENOS": "NULL", "LEYENDA_1": "NULL", "LEYENDA_2": "Amenaza Baja", "VOLCAN": "Puracé", "AMENAZA": "Amenaza Baja", "AREA_KM2": "NULL"}},{"type": "Feature", "geometry": {"type": "MultiPolygon", "coordinates": [[[[-76.501498, 2.207482], [-76.501462, 2.207485], [-76.501543, 2.207456], [-76.501498, 2.207482]]], [[[-76.406045, 2.280941], [-76.406938, 2.280761], [-76.407531, 2.281005], [-76.40867, 2.280633], [-76.411728, 2.27797], [-76.412637, 2.277633], [-76.415753, 2.273381], [-76.415572, 2.271507], [-76.417033, 2.269656], [-76.420094, 2.262216], [-76.422818, 2.259067], [-76.425718, 2.257593], [-76.428191, 2.257216], [-76.430719, 2.25742], [-76.434354, 2.258971], [-76.439113, 2.258704], [-76.442044, 2.256948], [-76.444384, 2.25489], [-76.448655, 2.254112], [-76.449815, 2.252338], [-76.450235, 2.250987], [-76.452045, 2.251089], [-76.452646, 2.25052], [-76.452513, 2.250052], [-76.45318, 2.249814], [-76.454677, 2.247663], [-76.45682, 2.247038], [-76.458286, 2.246098], [-76.458623, 2.245442], [-76.459623, 2.245044], [-76.45961, 2.244566], [-76.460629, 2.24397], [-76.46082, 2.242943], [-76.462004, 2.242237], [-76.462361, 2.241352], [-76.463373, 2.240427], [-76.463491, 2.239745], [-76.46419, 2.239388], [-76.46416, 2.238634], [-76.465004, 2.237949], [-76.465557, 2.236689], [-76.467083, 2.234831], [-76.46718, 2.233131], [-76.466753, 2.231334], [-76.469365, 2.23011], [-76.470957, 2.228405], [-76.473296, 2.227135], [-76.473039, 2.226732], [-76.473773, 2.226262], [-76.474293, 2.224867], [-76.476216, 2.224333], [-76.477547, 2.223674], [-76.47789, 2.223157], [-76.478588, 2.223015], [-76.480516, 2.220257], [-76.481805, 2.219805], [-76.482557, 2.219124], [-76.48299, 2.21651], [-76.485045, 2.214236], [-76.485477, 2.213303], [-76.498483, 2.208536], [-76.499454, 2.209188], [-76.499387, 2.210207], [-76.499813, 2.210646], [-76.500838, 2.210939], [-76.50176, 2.211858], [-76.502731, 2.211843], [-76.50374, 2.212259], [-76.504888, 2.212094], [-76.506311, 2.213578], [-76.507776, 2.214555], [-76.508635, 2.214522], [-76.509461, 2.215117], [-76.51049, 2.215159], [-76.51093, 2.215498], [-76.511993, 2.215363], [-76.515799, 2.216855], [-76.517012, 2.216878], [-76.5187, 2.216223], [-76.51895, 2.21767], [-76.519508, 2.218228], [-76.521478, 2.217763], [-76.522568, 2.220033], [-76.524531, 2.22028], [-76.525218, 2.221467], [-76.526704, 2.221823], [-76.52832, 2.223517], [-76.529964, 2.224187], [-76.53048, 2.225102], [-76.531606, 2.225917], [-76.532257, 2.227068], [-76.533446, 2.227706], [-76.534452, 2.228967], [-76.535953, 2.230063], [-76.538174, 2.230264], [-76.54109, 2.231233], [-76.543184, 2.234256], [-76.54364, 2.236818], [-76.540786, 2.239024], [-76.541429, 2.240094], [-76.541861, 2.244752], [-76.541663, 2.246166], [-76.540649, 2.24627], [-76.540451, 2.246695], [-76.542226, 2.250482], [-76.541983, 2.252055], [-76.541164, 2.253126], [-76.541188, 2.253956], [-76.543437, 2.25607], [-76.543703, 2.260032], [-76.543126, 2.260915], [-76.542255, 2.2602], [-76.541827, 2.260675], [-76.542406, 2.263394], [-76.543565, 2.265409], [-76.543645, 2.269413], [-76.544257, 2.26989], [-76.544437, 2.270503], [-76.543633, 2.271754], [-76.542902, 2.275176], [-76.541219, 2.277718], [-76.541835, 2.279218], [-76.539862, 2.280785], [-76.539647, 2.281454], [-76.540021, 2.282576], [-76.539089, 2.283056], [-76.539272, 2.283377], [-76.538811, 2.283585], [-76.538876, 2.284301], [-76.537141, 2.285711], [-76.536511, 2.286765], [-76.534301, 2.280931], [-76.531914, 2.276551], [-76.529359, 2.273217], [-76.525887, 2.270035], [-76.521761, 2.267494], [-76.516485, 2.265401], [-76.511587, 2.264274], [-76.505058, 2.263595], [-76.497433, 2.263791], [-76.483351, 2.265267], [-76.464019, 2.26902], [-76.450307, 2.272715], [-76.439976, 2.27614], [-76.429407, 2.280427], [-76.418933, 2.285267], [-76.409488, 2.290752], [-76.406232, 2.289032], [-76.402374, 2.287663], [-76.402229, 2.286037], [-76.402888, 2.285311], [-76.404152, 2.282645], [-76.405126, 2.282289], [-76.406045, 2.280941]]], [[[-76.352335, 2.327004], [-76.350855, 2.320314], [-76.350395, 2.314047], [-76.350884, 2.307211], [-76.352229, 2.301074], [-76.354408, 2.295185], [-76.357684, 2.289175], [-76.361449, 2.284161], [-76.366301, 2.279348], [-76.371819, 2.275328], [-76.377878, 2.272194], [-76.384339, 2.270016], [-76.390955, 2.268855], [-76.400791, 2.260217], [-76.41237, 2.251551], [-76.425987, 2.242453], [-76.440334, 2.234019], [-76.450958, 2.228457], [-76.462631, 2.222815], [-76.473476, 2.218042], [-76.484333, 2.213732], [-76.482427, 2.215734], [-76.481462, 2.217642], [-76.480318, 2.217767], [-76.480345, 2.218339], [-76.479184, 2.218462], [-76.479112, 2.219033], [-76.478232, 2.219667], [-76.477699, 2.219689], [-76.478057, 2.220614], [-76.477113, 2.220951], [-76.47709, 2.221292], [-76.476624, 2.221327], [-76.47637, 2.221832], [-76.475866, 2.221877], [-76.474687, 2.223142], [-76.473982, 2.222913], [-76.473738, 2.223869], [-76.473262, 2.223844], [-76.472872, 2.224465], [-76.472228, 2.224545], [-76.472217, 2.225054], [-76.471776, 2.225236], [-76.471832, 2.226085], [-76.471268, 2.226173], [-76.470322, 2.227093], [-76.469657, 2.227095], [-76.469911, 2.22808], [-76.468985, 2.228095], [-76.468847, 2.228816], [-76.466337, 2.230185], [-76.465796, 2.230179], [-76.465373, 2.231793], [-76.466218, 2.23237], [-76.466485, 2.234701], [-76.464659, 2.236374], [-76.46437, 2.237222], [-76.463864, 2.237134], [-76.463205, 2.238632], [-76.462035, 2.239228], [-76.460392, 2.241122], [-76.459101, 2.241578], [-76.458547, 2.243794], [-76.457184, 2.245192], [-76.456712, 2.24615], [-76.455005, 2.246893], [-76.453134, 2.247103], [-76.452253, 2.247655], [-76.452121, 2.248732], [-76.451256, 2.249705], [-76.449167, 2.250446], [-76.447921, 2.253721], [-76.444191, 2.254512], [-76.442134, 2.256382], [-76.438966, 2.258353], [-76.435948, 2.258613], [-76.430123, 2.256954], [-76.424916, 2.257094], [-76.422453, 2.258617], [-76.421479, 2.259657], [-76.421222, 2.260406], [-76.420262, 2.261043], [-76.419441, 2.262715], [-76.41813, 2.263266], [-76.417901, 2.266457], [-76.41654, 2.269758], [-76.41481, 2.27173], [-76.414726, 2.273254], [-76.414177, 2.274745], [-76.411965, 2.276414], [-76.411253, 2.277817], [-76.409963, 2.278482], [-76.408891, 2.279788], [-76.40764, 2.280384], [-76.407191, 2.279802], [-76.406568, 2.279737], [-76.405176, 2.280589], [-76.404703, 2.281627], [-76.402657, 2.282659], [-76.400754, 2.287277], [-76.394665, 2.286736], [-76.388576, 2.287597], [-76.382838, 2.289823], [-76.377751, 2.293299], [-76.374384, 2.296791], [-76.371483, 2.301221], [-76.369494, 2.306135], [-76.368525, 2.311035], [-76.36718, 2.311894], [-76.366362, 2.313588], [-76.364601, 2.313991], [-76.363278, 2.314877], [-76.36161, 2.318054], [-76.359099, 2.320541], [-76.356358, 2.320211], [-76.355239, 2.320753], [-76.354506, 2.321571], [-76.354215, 2.322564], [-76.354334, 2.32348], [-76.355229, 2.325732], [-76.355941, 2.326476], [-76.357187, 2.326904], [-76.358245, 2.326713], [-76.358935, 2.326104], [-76.359551, 2.324701], [-76.359916, 2.326353], [-76.35915, 2.328797], [-76.35783, 2.329534], [-76.356611, 2.328809], [-76.355113, 2.32881], [-76.354146, 2.329408], [-76.353558, 2.330522], [-76.352335, 2.327004]]], [[[-76.480886, 2.380378], [-76.478489, 2.379591], [-76.475707, 2.37752], [-76.47455, 2.37718], [-76.473927, 2.376406], [-76.472282, 2.376787], [-76.47023, 2.375304], [-76.469941, 2.372664], [-76.470162, 2.371445], [-76.469431, 2.369531], [-76.469574, 2.367763], [-76.468896, 2.367039], [-76.468731, 2.365583], [-76.469881, 2.36533], [-76.47084, 2.364265], [-76.470938, 2.362931], [-76.470146, 2.361291], [-76.469057, 2.360404], [-76.467809, 2.360352], [-76.465795, 2.361108], [-76.463976, 2.362694], [-76.461051, 2.363924], [-76.458821, 2.363217], [-76.457513, 2.361485], [-76.45361, 2.359201], [-76.453044, 2.35869], [-76.453072, 2.357525], [-76.452207, 2.354912], [-76.4521, 2.353214], [-76.450492, 2.351427], [-76.45147, 2.349934], [-76.451038, 2.348203], [-76.449677, 2.347227], [-76.448056, 2.346773], [-76.44569, 2.345402], [-76.444487, 2.345205], [-76.442571, 2.343861], [-76.441044, 2.343269], [-76.43999, 2.341655], [-76.439313, 2.339638], [-76.438981, 2.337032], [-76.451274, 2.338292], [-76.461698, 2.338659], [-76.475649, 2.338465], [-76.492911, 2.33708], [-76.504175, 2.335296], [-76.512301, 2.333526], [-76.518859, 2.33124], [-76.524844, 2.32818], [-76.529387, 2.324764], [-76.532327, 2.321694], [-76.534856, 2.317927], [-76.536607, 2.313953], [-76.538214, 2.306801], [-76.538627, 2.299654], [-76.538189, 2.293669], [-76.536654, 2.287213], [-76.537343, 2.28596], [-76.539663, 2.284466], [-76.540067, 2.283357], [-76.540834, 2.282887], [-76.540885, 2.282304], [-76.540164, 2.281614], [-76.54011, 2.28114], [-76.542488, 2.279539], [-76.542022, 2.278024], [-76.543309, 2.275544], [-76.543902, 2.272013], [-76.545005, 2.270753], [-76.544194, 2.268762], [-76.543951, 2.266199], [-76.544225, 2.265089], [-76.542757, 2.262082], [-76.544198, 2.260063], [-76.543762, 2.257756], [-76.54392, 2.256061], [-76.541655, 2.253722], [-76.541737, 2.253109], [-76.542456, 2.25221], [-76.54258, 2.250204], [-76.540872, 2.246892], [-76.541939, 2.246678], [-76.542178, 2.246145], [-76.542279, 2.244364], [-76.541823, 2.241176], [-76.542023, 2.240107], [-76.541454, 2.239042], [-76.543176, 2.23805], [-76.544112, 2.237011], [-76.543748, 2.234122], [-76.543154, 2.233069], [-76.541717, 2.231149], [-76.540553, 2.230333], [-76.535922, 2.229497], [-76.533744, 2.227423], [-76.532395, 2.226796], [-76.531833, 2.225591], [-76.530801, 2.224833], [-76.530434, 2.224001], [-76.528359, 2.223173], [-76.526969, 2.221093], [-76.525614, 2.221052], [-76.525114, 2.219657], [-76.523542, 2.219315], [-76.521835, 2.217275], [-76.521099, 2.21705], [-76.51972, 2.21732], [-76.519532, 2.216106], [-76.51876, 2.21521], [-76.518504, 2.214283], [-76.515991, 2.21417], [-76.514827, 2.213032], [-76.514638, 2.212228], [-76.512927, 2.211865], [-76.511853, 2.211011], [-76.510804, 2.210938], [-76.509968, 2.210091], [-76.507528, 2.208915], [-76.506019, 2.209214], [-76.504024, 2.208674], [-76.502303, 2.207193], [-76.518148, 2.202162], [-76.541848, 2.196051], [-76.559862, 2.192331], [-76.578303, 2.189389], [-76.595531, 2.187496], [-76.612128, 2.186557], [-76.630855, 2.186482], [-76.638875, 2.186899], [-76.646218, 2.187686], [-76.656691, 2.189657], [-76.666351, 2.192532], [-76.678234, 2.19726], [-76.689646, 2.203092], [-76.699548, 2.21037], [-76.705611, 2.216069], [-76.71415, 2.226213], [-76.720819, 2.235795], [-76.725875, 2.245644], [-76.727781, 2.250371], [-76.730717, 2.260713], [-76.732336, 2.268601], [-76.732845, 2.27664], [-76.732728, 2.287395], [-76.731807, 2.294231], [-76.729356, 2.304923], [-76.725923, 2.314316], [-76.720349, 2.326368], [-76.71694, 2.332108], [-76.711001, 2.340035], [-76.707166, 2.344343], [-76.698878, 2.351781], [-76.690426, 2.358254], [-76.682121, 2.363674], [-76.672809, 2.368503], [-76.663631, 2.372227], [-76.653686, 2.375449], [-76.63792, 2.379659], [-76.624812, 2.382563], [-76.608673, 2.385315], [-76.596495, 2.386888], [-76.581649, 2.38834], [-76.567632, 2.389161], [-76.548474, 2.38957], [-76.532711, 2.389251], [-76.51683, 2.388188], [-76.499393, 2.386523], [-76.48066, 2.383757], [-76.481399, 2.381509], [-76.480886, 2.380378]]], [[[-76.363365, 2.3426], [-76.365147, 2.342072], [-76.367534, 2.342061], [-76.369422, 2.341097], [-76.371868, 2.337673], [-76.371839, 2.336699], [-76.370841, 2.334464], [-76.371487, 2.333736], [-76.373313, 2.333121], [-76.375112, 2.331797], [-76.377624, 2.334311], [-76.380112, 2.336248], [-76.380161, 2.33733], [-76.378219, 2.338126], [-76.377149, 2.340136], [-76.376864, 2.34178], [-76.37536, 2.343439], [-76.375143, 2.344322], [-76.373471, 2.345482], [-76.372435, 2.347331], [-76.370732, 2.34859], [-76.369617, 2.35094], [-76.36615, 2.348244], [-76.362934, 2.345193], [-76.363648, 2.343983], [-76.363365, 2.3426]]], [[[-76.447429, 2.356412], [-76.44397, 2.355776], [-76.441872, 2.3536], [-76.439901, 2.352601], [-76.43846, 2.352961], [-76.437657, 2.35429], [-76.436074, 2.355226], [-76.434485, 2.355045], [-76.431984, 2.351621], [-76.429206, 2.350091], [-76.427895, 2.346099], [-76.426252, 2.343539], [-76.424925, 2.340528], [-76.424118, 2.33964], [-76.423305, 2.336714], [-76.420991, 2.333778], [-76.427674, 2.335268], [-76.434526, 2.336374], [-76.435323, 2.337823], [-76.436053, 2.342796], [-76.436447, 2.343732], [-76.43783, 2.345828], [-76.442936, 2.349027], [-76.442851, 2.350804], [-76.443889, 2.352562], [-76.447486, 2.355603], [-76.447429, 2.356412]]], [[[-76.380202, 2.35045], [-76.379384, 2.35181], [-76.377911, 2.353203], [-76.377565, 2.355392], [-76.37559, 2.35448], [-76.375698, 2.354088], [-76.380202, 2.35045]]], [[[-76.402176, 2.358559], [-76.395397, 2.359083], [-76.390311, 2.358797], [-76.390125, 2.357607], [-76.389048, 2.356017], [-76.388104, 2.355102], [-76.387064, 2.354804], [-76.386512, 2.353812], [-76.387129, 2.351843], [-76.386919, 2.350392], [-76.388365, 2.348969], [-76.389345, 2.346761], [-76.38971, 2.343308], [-76.390477, 2.340546], [-76.394498, 2.34098], [-76.398787, 2.340772], [-76.398628, 2.34268], [-76.399373, 2.345107], [-76.401633, 2.347123], [-76.402507, 2.347451], [-76.40345, 2.347368], [-76.406004, 2.350237], [-76.406422, 2.351039], [-76.406802, 2.353355], [-76.408854, 2.35805], [-76.411352, 2.360775], [-76.416654, 2.36388], [-76.418907, 2.364829], [-76.41931, 2.366603], [-76.412479, 2.363665], [-76.402176, 2.358559]]], [[[-76.480226, 2.383681], [-76.463083, 2.380269], [-76.451361, 2.377304], [-76.432357, 2.371454], [-76.431473, 2.369902], [-76.430188, 2.369368], [-76.429403, 2.36829], [-76.430138, 2.366919], [-76.429823, 2.365038], [-76.427815, 2.36191], [-76.426483, 2.358954], [-76.426962, 2.355124], [-76.428446, 2.356094], [-76.4294, 2.358647], [-76.431812, 2.360149], [-76.435931, 2.360499], [-76.439778, 2.36003], [-76.442164, 2.360999], [-76.442665, 2.361483], [-76.44267, 2.362511], [-76.44309, 2.363377], [-76.444895, 2.364368], [-76.446333, 2.364432], [-76.447437, 2.363791], [-76.448778, 2.363661], [-76.450689, 2.36402], [-76.45186, 2.363413], [-76.452375, 2.36346], [-76.454951, 2.36476], [-76.456982, 2.367621], [-76.459149, 2.368525], [-76.460512, 2.368493], [-76.462239, 2.367465], [-76.464195, 2.367083], [-76.465861, 2.365771], [-76.467468, 2.365041], [-76.46813, 2.365373], [-76.469121, 2.368229], [-76.469147, 2.369868], [-76.469818, 2.371467], [-76.46939, 2.372485], [-76.469943, 2.375634], [-76.472083, 2.37721], [-76.473674, 2.376744], [-76.474167, 2.377362], [-76.475482, 2.377766], [-76.478168, 2.379799], [-76.480455, 2.380558], [-76.481002, 2.38175], [-76.480226, 2.383681]]]]}, "properties": {"FENOMENOS": "NULL", "LEYENDA_1": "NULL", "LEYENDA_2": "Amenaza Media", "VOLCAN": "Puracé", "AMENAZA": "Amenaza Media", "AREA_KM2": "NULL"}},{"type": "Feature", "geometry": {"type": "MultiPolygon", "coordinates": [[[[-76.521814, 2.327309], [-76.522505, 2.326886], [-76.524255, 2.327076], [-76.524951, 2.325455], [-76.52546, 2.325018], [-76.526962, 2.325412], [-76.527682, 2.325279], [-76.528484, 2.323853], [-76.530834, 2.321651], [-76.530542, 2.320149], [-76.529286, 2.319383], [-76.529179, 2.316824], [-76.52953, 2.315974], [-76.530927, 2.315873], [-76.531709, 2.313129], [-76.530544, 2.311438], [-76.529717, 2.309167], [-76.528348, 2.306845], [-76.528163, 2.305506], [-76.52662, 2.303305], [-76.527963, 2.299615], [-76.527376, 2.294301], [-76.52851, 2.292451], [-76.529196, 2.291939], [-76.530772, 2.29141], [-76.533883, 2.29176], [-76.534309, 2.291537], [-76.534514, 2.291013], [-76.53405, 2.290045], [-76.534117, 2.289359], [-76.535756, 2.288929], [-76.536931, 2.285969], [-76.538832, 2.284363], [-76.538811, 2.283585], [-76.539272, 2.283377], [-76.539089, 2.283056], [-76.540021, 2.282576], [-76.539647, 2.281454], [-76.539815, 2.280856], [-76.541835, 2.279218], [-76.541238, 2.277656], [-76.542902, 2.275176], [-76.543633, 2.271754], [-76.544422, 2.270574], [-76.544257, 2.26989], [-76.543645, 2.269413], [-76.543551, 2.265341], [-76.542406, 2.263394], [-76.541827, 2.260675], [-76.542255, 2.2602], [-76.543126, 2.260915], [-76.543703, 2.260032], [-76.543437, 2.25607], [-76.541188, 2.253956], [-76.541164, 2.253126], [-76.541983, 2.252055], [-76.542226, 2.250482], [-76.540451, 2.246695], [-76.540649, 2.24627], [-76.541663, 2.246166], [-76.541861, 2.244752], [-76.541429, 2.240094], [-76.540786, 2.239024], [-76.54364, 2.236818], [-76.543223, 2.2344], [-76.541212, 2.23132], [-76.540061, 2.230723], [-76.535812, 2.229975], [-76.534452, 2.228967], [-76.533446, 2.227706], [-76.532257, 2.227068], [-76.531606, 2.225917], [-76.53048, 2.225102], [-76.529964, 2.224187], [-76.52832, 2.223517], [-76.526704, 2.221823], [-76.525218, 2.221467], [-76.524531, 2.22028], [-76.522568, 2.220033], [-76.521532, 2.2178], [-76.521002, 2.217708], [-76.519774, 2.218241], [-76.519267, 2.218101], [-76.518899, 2.217525], [-76.518755, 2.216249], [-76.516943, 2.216892], [-76.515627, 2.21682], [-76.511993, 2.215363], [-76.51093, 2.215498], [-76.51049, 2.215159], [-76.509461, 2.215117], [-76.508635, 2.214522], [-76.507776, 2.214555], [-76.504819, 2.212067], [-76.50374, 2.212259], [-76.501609, 2.211794], [-76.500838, 2.210939], [-76.499485, 2.210383], [-76.499454, 2.209188], [-76.498665, 2.208848], [-76.498178, 2.207315], [-76.496475, 2.206648], [-76.496119, 2.205071], [-76.495575, 2.205027], [-76.495351, 2.205493], [-76.494309, 2.205543], [-76.492609, 2.206343], [-76.491157, 2.206227], [-76.489422, 2.206974], [-76.488196, 2.208984], [-76.486276, 2.210812], [-76.485175, 2.21404], [-76.48299, 2.21651], [-76.482521, 2.219174], [-76.481805, 2.219805], [-76.480516, 2.220257], [-76.478588, 2.223015], [-76.47789, 2.223157], [-76.477547, 2.223674], [-76.476216, 2.224333], [-76.47423, 2.224914], [-76.473773, 2.226262], [-76.473039, 2.226732], [-76.473296, 2.227135], [-76.470957, 2.228405], [-76.469365, 2.23011], [-76.466793, 2.231291], [-76.46718, 2.233131], [-76.467083, 2.234831], [-76.465557, 2.236689], [-76.465004, 2.237949], [-76.46416, 2.238634], [-76.46419, 2.239388], [-76.463491, 2.239745], [-76.463373, 2.240427], [-76.462361, 2.241352], [-76.462004, 2.242237], [-76.46082, 2.242943], [-76.460657, 2.243938], [-76.45961, 2.244566], [-76.459623, 2.245044], [-76.458623, 2.245442], [-76.458286, 2.246098], [-76.45682, 2.247038], [-76.454677, 2.247663], [-76.45318, 2.249814], [-76.452513, 2.250052], [-76.452646, 2.25052], [-76.452045, 2.251089], [-76.450235, 2.250987], [-76.449815, 2.252338], [-76.448655, 2.254112], [-76.444384, 2.25489], [-76.442044, 2.256948], [-76.439113, 2.258704], [-76.434354, 2.258971], [-76.430719, 2.25742], [-76.428191, 2.257216], [-76.425718, 2.257593], [-76.422759, 2.259112], [-76.420094, 2.262216], [-76.417033, 2.269656], [-76.415572, 2.271507], [-76.415753, 2.273381], [-76.412637, 2.277633], [-76.411728, 2.27797], [-76.40867, 2.280633], [-76.407531, 2.281005], [-76.406884, 2.280761], [-76.405893, 2.281008], [-76.405126, 2.282289], [-76.404152, 2.282645], [-76.402888, 2.285311], [-76.402229, 2.286037], [-76.402374, 2.287663], [-76.400754, 2.287277], [-76.402657, 2.282659], [-76.404703, 2.281627], [-76.405176, 2.280589], [-76.406568, 2.279737], [-76.407191, 2.279802], [-76.40764, 2.280384], [-76.408891, 2.279788], [-76.409963, 2.278482], [-76.411253, 2.277817], [-76.411965, 2.276414], [-76.41423, 2.274676], [-76.414726, 2.273254], [-76.41481, 2.27173], [-76.41654, 2.269758], [-76.417925, 2.266388], [-76.41813, 2.263266], [-76.419441, 2.262715], [-76.420262, 2.261043], [-76.421222, 2.260406], [-76.421479, 2.259657], [-76.422453, 2.258617], [-76.425394, 2.25695], [-76.430279, 2.256974], [-76.436018, 2.258621], [-76.438966, 2.258353], [-76.442134, 2.256382], [-76.444191, 2.254512], [-76.447921, 2.253721], [-76.449167, 2.250446], [-76.451256, 2.249705], [-76.452121, 2.248732], [-76.452253, 2.247655], [-76.453134, 2.247103], [-76.455005, 2.246893], [-76.456712, 2.24615], [-76.457184, 2.245192], [-76.458547, 2.243794], [-76.459101, 2.241578], [-76.460392, 2.241122], [-76.462035, 2.239228], [-76.463205, 2.238632], [-76.463864, 2.237134], [-76.46437, 2.237222], [-76.464659, 2.236374], [-76.466485, 2.234701], [-76.466218, 2.23237], [-76.465373, 2.231793], [-76.465796, 2.230179], [-76.466337, 2.230185], [-76.468847, 2.228816], [-76.468985, 2.228095], [-76.469911, 2.22808], [-76.469657, 2.227095], [-76.470322, 2.227093], [-76.471268, 2.226173], [-76.471832, 2.226085], [-76.471776, 2.225236], [-76.472217, 2.225054], [-76.472228, 2.224545], [-76.472872, 2.224465], [-76.473262, 2.223844], [-76.473738, 2.223869], [-76.473982, 2.222913], [-76.474687, 2.223142], [-76.475866, 2.221877], [-76.47637, 2.221832], [-76.476624, 2.221327], [-76.47709, 2.221292], [-76.477113, 2.220951], [-76.478057, 2.220614], [-76.477699, 2.219689], [-76.478232, 2.219667], [-76.479112, 2.219033], [-76.479238, 2.21842], [-76.480345, 2.218339], [-76.480318, 2.217767], [-76.481496, 2.21761], [-76.482427, 2.215734], [-76.484345, 2.213714], [-76.486165, 2.209756], [-76.487711, 2.208653], [-76.488817, 2.206746], [-76.491945, 2.20562], [-76.492526, 2.204787], [-76.494523, 2.204815], [-76.497146, 2.203665], [-76.497621, 2.204129], [-76.497594, 2.205165], [-76.498647, 2.206319], [-76.499574, 2.205805], [-76.500921, 2.207175], [-76.501504, 2.207017], [-76.501466, 2.207486], [-76.502136, 2.207049], [-76.504024, 2.208674], [-76.506019, 2.209214], [-76.507528, 2.208915], [-76.509968, 2.210091], [-76.510804, 2.210938], [-76.511853, 2.211011], [-76.512927, 2.211865], [-76.514638, 2.212228], [-76.51478, 2.212964], [-76.515918, 2.214135], [-76.518561, 2.214319], [-76.51876, 2.21521], [-76.519532, 2.216106], [-76.51972, 2.21732], [-76.521607, 2.217149], [-76.523542, 2.219315], [-76.52502, 2.21957], [-76.525614, 2.221052], [-76.527023, 2.221134], [-76.528294, 2.223114], [-76.530379, 2.223955], [-76.530851, 2.224889], [-76.531833, 2.225591], [-76.532395, 2.226796], [-76.533744, 2.227423], [-76.536062, 2.229593], [-76.54041, 2.230282], [-76.541482, 2.23095], [-76.543763, 2.234198], [-76.544067, 2.237168], [-76.541454, 2.239042], [-76.542023, 2.240107], [-76.541823, 2.241176], [-76.542279, 2.244364], [-76.542178, 2.246145], [-76.541939, 2.246678], [-76.540872, 2.246892], [-76.54258, 2.250204], [-76.542456, 2.25221], [-76.541737, 2.253109], [-76.541655, 2.253722], [-76.54392, 2.256061], [-76.543762, 2.257756], [-76.544198, 2.260063], [-76.542757, 2.262082], [-76.544225, 2.265089], [-76.543951, 2.266199], [-76.544194, 2.268762], [-76.544976, 2.270908], [-76.543902, 2.272013], [-76.543309, 2.275544], [-76.542022, 2.278024], [-76.542488, 2.279539], [-76.540188, 2.281001], [-76.540116, 2.281523], [-76.540857, 2.282241], [-76.540869, 2.282819], [-76.540067, 2.283357], [-76.539663, 2.284466], [-76.53714, 2.286202], [-76.53647, 2.287726], [-76.536278, 2.289206], [-76.534538, 2.289771], [-76.53466, 2.290353], [-76.535295, 2.290956], [-76.535227, 2.291364], [-76.534004, 2.292379], [-76.533057, 2.291896], [-76.531017, 2.29182], [-76.529148, 2.292333], [-76.527745, 2.294963], [-76.528399, 2.299811], [-76.527881, 2.301602], [-76.527076, 2.302409], [-76.526909, 2.303073], [-76.528534, 2.305343], [-76.528734, 2.306761], [-76.529935, 2.308589], [-76.530853, 2.311185], [-76.532044, 2.312978], [-76.531176, 2.316164], [-76.530718, 2.316486], [-76.529697, 2.316422], [-76.529482, 2.316853], [-76.529786, 2.3182], [-76.529612, 2.319233], [-76.530983, 2.320138], [-76.531089, 2.322187], [-76.528676, 2.324045], [-76.527916, 2.325524], [-76.527111, 2.325805], [-76.525493, 2.325459], [-76.52481, 2.327057], [-76.524312, 2.327495], [-76.522601, 2.327398], [-76.521628, 2.327842], [-76.521814, 2.327309]]], [[[-76.761703, 2.551686], [-76.761026, 2.551795], [-76.759877, 2.551082], [-76.759268, 2.549052], [-76.757508, 2.547078], [-76.756534, 2.546464], [-76.755228, 2.546425], [-76.754508, 2.547344], [-76.753762, 2.547668], [-76.752083, 2.547106], [-76.751114, 2.545506], [-76.749949, 2.544457], [-76.749833, 2.541826], [-76.747609, 2.540279], [-76.745982, 2.540333], [-76.744514, 2.538367], [-76.744185, 2.536808], [-76.742554, 2.535345], [-76.742506, 2.53399], [-76.740917, 2.533701], [-76.738846, 2.531135], [-76.737885, 2.530377], [-76.73693, 2.530279], [-76.736404, 2.529899], [-76.73532, 2.528443], [-76.735488, 2.527196], [-76.734541, 2.52631], [-76.734032, 2.524512], [-76.732996, 2.523531], [-76.730653, 2.522994], [-76.729348, 2.520583], [-76.727299, 2.519365], [-76.7254, 2.515552], [-76.724193, 2.514614], [-76.72342, 2.51354], [-76.722042, 2.512615], [-76.721739, 2.510978], [-76.720194, 2.510971], [-76.71942, 2.510553], [-76.718252, 2.508596], [-76.71686, 2.507089], [-76.715775, 2.506821], [-76.714579, 2.505739], [-76.713153, 2.505133], [-76.712449, 2.50395], [-76.711761, 2.503548], [-76.709594, 2.500893], [-76.707256, 2.499901], [-76.707095, 2.49933], [-76.707682, 2.497751], [-76.707345, 2.496999], [-76.70565, 2.497641], [-76.70421, 2.497486], [-76.701448, 2.499098], [-76.698641, 2.500269], [-76.696384, 2.500103], [-76.695615, 2.500354], [-76.692557, 2.499455], [-76.691232, 2.498013], [-76.687193, 2.495171], [-76.68514, 2.495411], [-76.684157, 2.496689], [-76.682494, 2.495319], [-76.681267, 2.496154], [-76.680253, 2.496095], [-76.67817, 2.496882], [-76.677264, 2.496137], [-76.676912, 2.495183], [-76.677949, 2.493858], [-76.677173, 2.494236], [-76.676415, 2.49412], [-76.674521, 2.492484], [-76.673886, 2.489212], [-76.672004, 2.488877], [-76.670866, 2.48945], [-76.669956, 2.489191], [-76.669492, 2.486985], [-76.668661, 2.485789], [-76.667048, 2.484962], [-76.666305, 2.483584], [-76.664102, 2.48389], [-76.663693, 2.48424], [-76.661679, 2.482688], [-76.661403, 2.48161], [-76.658807, 2.482107], [-76.657921, 2.481872], [-76.657003, 2.480202], [-76.655588, 2.480825], [-76.654805, 2.480464], [-76.653984, 2.479326], [-76.654313, 2.477895], [-76.654147, 2.47735], [-76.652372, 2.474395], [-76.651373, 2.47412], [-76.650913, 2.473487], [-76.651308, 2.471913], [-76.650423, 2.470649], [-76.650353, 2.469222], [-76.64968, 2.468343], [-76.64876, 2.468329], [-76.648252, 2.46891], [-76.646994, 2.469467], [-76.645646, 2.469557], [-76.644348, 2.469415], [-76.641548, 2.467393], [-76.639335, 2.468086], [-76.637804, 2.466322], [-76.635376, 2.466371], [-76.633495, 2.464222], [-76.633009, 2.462817], [-76.632439, 2.462387], [-76.631805, 2.462248], [-76.630435, 2.46276], [-76.629375, 2.46253], [-76.627321, 2.463587], [-76.625314, 2.463695], [-76.624432, 2.462973], [-76.624169, 2.461584], [-76.624376, 2.460955], [-76.623486, 2.460185], [-76.622699, 2.460321], [-76.621669, 2.459977], [-76.620521, 2.460293], [-76.620528, 2.460628], [-76.619731, 2.460981], [-76.617325, 2.46126], [-76.615417, 2.460009], [-76.614825, 2.458934], [-76.614237, 2.460336], [-76.613429, 2.46063], [-76.611795, 2.459998], [-76.610948, 2.460281], [-76.610384, 2.461032], [-76.60814, 2.460491], [-76.606596, 2.461521], [-76.605766, 2.461648], [-76.604339, 2.460737], [-76.603561, 2.461317], [-76.603121, 2.463266], [-76.602013, 2.464318], [-76.599628, 2.464286], [-76.598533, 2.46483], [-76.595194, 2.464452], [-76.594422, 2.465053], [-76.59428, 2.466082], [-76.593738, 2.466273], [-76.59261, 2.466087], [-76.590242, 2.464957], [-76.589264, 2.46355], [-76.588764, 2.463368], [-76.588659, 2.463962], [-76.587944, 2.463974], [-76.588365, 2.464316], [-76.587189, 2.466022], [-76.583549, 2.466498], [-76.582294, 2.467166], [-76.582387, 2.467555], [-76.581321, 2.468577], [-76.578401, 2.47031], [-76.576763, 2.474184], [-76.574109, 2.476277], [-76.572955, 2.478083], [-76.571663, 2.478476], [-76.570066, 2.478382], [-76.566161, 2.47459], [-76.56442, 2.473944], [-76.563167, 2.473084], [-76.561128, 2.47259], [-76.558625, 2.471214], [-76.55656, 2.470737], [-76.551755, 2.468125], [-76.545554, 2.461482], [-76.543854, 2.460822], [-76.541836, 2.459445], [-76.538272, 2.458552], [-76.537161, 2.457638], [-76.536179, 2.455389], [-76.535253, 2.455067], [-76.533281, 2.455075], [-76.532004, 2.454537], [-76.53095, 2.452452], [-76.530026, 2.451591], [-76.525227, 2.449597], [-76.52398, 2.448102], [-76.524574, 2.446749], [-76.523814, 2.445699], [-76.523688, 2.444541], [-76.524114, 2.442792], [-76.52513, 2.441051], [-76.523943, 2.436818], [-76.524569, 2.436031], [-76.526736, 2.434793], [-76.528213, 2.434403], [-76.528357, 2.433914], [-76.527712, 2.433013], [-76.525988, 2.432485], [-76.525056, 2.431728], [-76.523793, 2.429186], [-76.522198, 2.427205], [-76.522483, 2.425353], [-76.521317, 2.424521], [-76.519254, 2.424276], [-76.517029, 2.423389], [-76.515231, 2.420998], [-76.513213, 2.420398], [-76.510839, 2.419131], [-76.508532, 2.416157], [-76.507553, 2.41557], [-76.502733, 2.414338], [-76.497987, 2.413824], [-76.497516, 2.412888], [-76.497258, 2.410121], [-76.495686, 2.409964], [-76.494006, 2.408456], [-76.492629, 2.408248], [-76.49223, 2.40778], [-76.491003, 2.40394], [-76.491031, 2.401963], [-76.490164, 2.39685], [-76.490248, 2.39561], [-76.489903, 2.395315], [-76.488823, 2.395483], [-76.485852, 2.397479], [-76.484483, 2.39699], [-76.483585, 2.39596], [-76.483362, 2.394779], [-76.481496, 2.391434], [-76.478523, 2.389114], [-76.476504, 2.385985], [-76.473646, 2.385544], [-76.471447, 2.38469], [-76.469051, 2.381885], [-76.467174, 2.381686], [-76.465417, 2.382043], [-76.463706, 2.382687], [-76.463021, 2.383367], [-76.460888, 2.383578], [-76.459396, 2.385611], [-76.458634, 2.385835], [-76.457052, 2.385613], [-76.456, 2.386106], [-76.454426, 2.388202], [-76.453424, 2.390453], [-76.451433, 2.392174], [-76.449182, 2.392675], [-76.447332, 2.393595], [-76.447008, 2.394936], [-76.446269, 2.396134], [-76.445031, 2.396286], [-76.444197, 2.397057], [-76.442603, 2.397708], [-76.440166, 2.397735], [-76.439255, 2.39878], [-76.438375, 2.399187], [-76.436974, 2.399014], [-76.435902, 2.399691], [-76.433988, 2.399736], [-76.432617, 2.398457], [-76.431935, 2.395622], [-76.430687, 2.39524], [-76.42957, 2.395311], [-76.426669, 2.392507], [-76.42578, 2.39254], [-76.423249, 2.393669], [-76.422026, 2.393172], [-76.421435, 2.392409], [-76.421165, 2.39095], [-76.420312, 2.38949], [-76.418549, 2.388257], [-76.418044, 2.387005], [-76.416142, 2.385774], [-76.415519, 2.383975], [-76.413575, 2.381857], [-76.412915, 2.380072], [-76.411577, 2.379175], [-76.409854, 2.378878], [-76.409034, 2.379165], [-76.406313, 2.378396], [-76.405381, 2.377449], [-76.403089, 2.377376], [-76.401853, 2.377594], [-76.400492, 2.378828], [-76.399449, 2.379017], [-76.397687, 2.380167], [-76.396699, 2.380401], [-76.395111, 2.379489], [-76.390516, 2.378479], [-76.389887, 2.377972], [-76.3892, 2.376696], [-76.387977, 2.375958], [-76.387009, 2.376374], [-76.384107, 2.375731], [-76.382137, 2.376388], [-76.381224, 2.37637], [-76.378814, 2.373876], [-76.375951, 2.372594], [-76.375462, 2.371662], [-76.373185, 2.370685], [-76.368893, 2.370412], [-76.366306, 2.370783], [-76.364992, 2.370181], [-76.364009, 2.370106], [-76.36336, 2.368869], [-76.363181, 2.365639], [-76.360485, 2.363532], [-76.360237, 2.359317], [-76.358743, 2.358102], [-76.356443, 2.354441], [-76.35624, 2.353094], [-76.356925, 2.352323], [-76.356343, 2.35199], [-76.356698, 2.350861], [-76.355753, 2.347312], [-76.354894, 2.346809], [-76.354785, 2.344164], [-76.355135, 2.34375], [-76.355799, 2.344192], [-76.356238, 2.347289], [-76.356959, 2.347505], [-76.357568, 2.349062], [-76.358357, 2.349823], [-76.357938, 2.350695], [-76.358489, 2.351908], [-76.356715, 2.353422], [-76.356744, 2.354064], [-76.35744, 2.355311], [-76.359636, 2.357451], [-76.359574, 2.357809], [-76.360688, 2.359064], [-76.361312, 2.360334], [-76.360749, 2.362052], [-76.360875, 2.363285], [-76.363533, 2.365407], [-76.364074, 2.368186], [-76.363818, 2.369142], [-76.364102, 2.369656], [-76.366257, 2.370308], [-76.367782, 2.369755], [-76.372204, 2.3702], [-76.372474, 2.369049], [-76.373864, 2.367589], [-76.372797, 2.365424], [-76.372281, 2.365157], [-76.37266, 2.364764], [-76.374071, 2.365827], [-76.374552, 2.366875], [-76.374253, 2.367995], [-76.372984, 2.369507], [-76.373119, 2.370167], [-76.375278, 2.370688], [-76.376032, 2.371163], [-76.379076, 2.373648], [-76.381377, 2.376111], [-76.382283, 2.376102], [-76.384711, 2.375311], [-76.386212, 2.37591], [-76.387917, 2.375432], [-76.38934, 2.376336], [-76.390469, 2.378153], [-76.395285, 2.37923], [-76.396775, 2.380008], [-76.400734, 2.378229], [-76.401837, 2.377154], [-76.405001, 2.377034], [-76.407286, 2.378109], [-76.410948, 2.378443], [-76.413172, 2.37985], [-76.413912, 2.381742], [-76.415822, 2.383728], [-76.416537, 2.385615], [-76.418152, 2.38648], [-76.419836, 2.388115], [-76.42134, 2.390501], [-76.422304, 2.392915], [-76.423166, 2.393221], [-76.425634, 2.391967], [-76.426785, 2.392137], [-76.429976, 2.394921], [-76.430888, 2.394664], [-76.43203, 2.395056], [-76.433559, 2.398548], [-76.434316, 2.399369], [-76.435801, 2.399366], [-76.436841, 2.398679], [-76.438307, 2.398843], [-76.440098, 2.397198], [-76.442375, 2.397332], [-76.443976, 2.396719], [-76.444883, 2.395815], [-76.446305, 2.395419], [-76.446864, 2.393053], [-76.450813, 2.391783], [-76.452909, 2.39022], [-76.454014, 2.387816], [-76.455788, 2.385768], [-76.454443, 2.384394], [-76.453024, 2.3837], [-76.451514, 2.383881], [-76.451598, 2.38349], [-76.45328, 2.383361], [-76.45513, 2.383972], [-76.456193, 2.384596], [-76.456415, 2.385354], [-76.458811, 2.385306], [-76.459729, 2.384844], [-76.46078, 2.383062], [-76.462902, 2.382771], [-76.466652, 2.381323], [-76.468738, 2.38122], [-76.469878, 2.381796], [-76.471328, 2.384055], [-76.473389, 2.384913], [-76.474895, 2.384799], [-76.476646, 2.385317], [-76.477945, 2.386498], [-76.479346, 2.388679], [-76.480151, 2.388403], [-76.480091, 2.387361], [-76.479195, 2.385971], [-76.48003, 2.384794], [-76.480944, 2.382025], [-76.480828, 2.380977], [-76.480386, 2.380522], [-76.478105, 2.379764], [-76.475482, 2.377766], [-76.474167, 2.377362], [-76.473634, 2.376723], [-76.472083, 2.37721], [-76.469943, 2.375634], [-76.46939, 2.372485], [-76.469818, 2.371467], [-76.469147, 2.369868], [-76.469121, 2.368229], [-76.46813, 2.365373], [-76.468731, 2.365583], [-76.468896, 2.367039], [-76.469574, 2.367763], [-76.469431, 2.369531], [-76.470162, 2.371445], [-76.469941, 2.372664], [-76.47023, 2.375304], [-76.472282, 2.376787], [-76.473927, 2.376406], [-76.47455, 2.37718], [-76.475707, 2.37752], [-76.478489, 2.379591], [-76.480517, 2.380064], [-76.480936, 2.380437], [-76.481392, 2.381741], [-76.480672, 2.383366], [-76.480666, 2.384847], [-76.479722, 2.385943], [-76.48039, 2.387457], [-76.480627, 2.389011], [-76.480199, 2.389816], [-76.482303, 2.391656], [-76.482673, 2.392751], [-76.483982, 2.394584], [-76.48424, 2.395808], [-76.485308, 2.396885], [-76.485904, 2.39694], [-76.487328, 2.395497], [-76.489146, 2.394475], [-76.490175, 2.394292], [-76.490855, 2.394611], [-76.491102, 2.395186], [-76.490851, 2.397085], [-76.491106, 2.399603], [-76.491497, 2.400593], [-76.491688, 2.404324], [-76.493106, 2.407507], [-76.494366, 2.40804], [-76.495845, 2.409512], [-76.496996, 2.409444], [-76.497626, 2.409872], [-76.498208, 2.413438], [-76.502662, 2.413985], [-76.507363, 2.415083], [-76.508314, 2.414969], [-76.511014, 2.418735], [-76.513937, 2.420178], [-76.515578, 2.420476], [-76.517451, 2.423118], [-76.519345, 2.423978], [-76.521689, 2.424215], [-76.523054, 2.425303], [-76.522984, 2.42748], [-76.525577, 2.431637], [-76.526154, 2.432179], [-76.528437, 2.433075], [-76.528816, 2.434005], [-76.528611, 2.434668], [-76.527033, 2.435083], [-76.524322, 2.436976], [-76.524947, 2.438114], [-76.525588, 2.441058], [-76.524554, 2.442967], [-76.524132, 2.444572], [-76.525258, 2.446512], [-76.525245, 2.447176], [-76.524667, 2.44811], [-76.525225, 2.449026], [-76.53065, 2.451407], [-76.531483, 2.452301], [-76.532281, 2.454096], [-76.532867, 2.454557], [-76.536549, 2.455018], [-76.537165, 2.455868], [-76.537514, 2.457332], [-76.538026, 2.457831], [-76.539461, 2.458448], [-76.542088, 2.458873], [-76.544274, 2.460506], [-76.546185, 2.461198], [-76.552078, 2.467541], [-76.556325, 2.469775], [-76.559144, 2.470664], [-76.560706, 2.471574], [-76.565471, 2.473435], [-76.567639, 2.475039], [-76.569914, 2.477424], [-76.571452, 2.47758], [-76.573103, 2.476654], [-76.574114, 2.474293], [-76.574571, 2.474697], [-76.57496, 2.47408], [-76.575837, 2.473675], [-76.576155, 2.472325], [-76.577028, 2.470819], [-76.580252, 2.467893], [-76.580501, 2.46708], [-76.580966, 2.467121], [-76.583804, 2.465688], [-76.585923, 2.465272], [-76.586748, 2.463579], [-76.587848, 2.462695], [-76.589282, 2.462691], [-76.590629, 2.463393], [-76.590592, 2.464029], [-76.590978, 2.464515], [-76.592751, 2.464787], [-76.593523, 2.464392], [-76.594249, 2.463449], [-76.594998, 2.463232], [-76.596723, 2.463822], [-76.597921, 2.463387], [-76.601277, 2.463196], [-76.603584, 2.460142], [-76.604776, 2.459262], [-76.605122, 2.459311], [-76.605253, 2.460315], [-76.606072, 2.460548], [-76.608423, 2.459691], [-76.610192, 2.459914], [-76.610889, 2.458531], [-76.612883, 2.459568], [-76.614116, 2.458253], [-76.614654, 2.458069], [-76.615306, 2.458259], [-76.615836, 2.459297], [-76.617669, 2.460567], [-76.619076, 2.460208], [-76.620917, 2.458566], [-76.622266, 2.45914], [-76.624497, 2.458759], [-76.62565, 2.460205], [-76.625278, 2.461837], [-76.626368, 2.462895], [-76.627545, 2.462395], [-76.628236, 2.461366], [-76.628998, 2.460999], [-76.630217, 2.461207], [-76.631423, 2.460223], [-76.632792, 2.460245], [-76.634437, 2.461471], [-76.634565, 2.462463], [-76.635038, 2.462711], [-76.635681, 2.463907], [-76.637241, 2.463881], [-76.637963, 2.463295], [-76.63945, 2.463945], [-76.640605, 2.463734], [-76.642401, 2.465169], [-76.644379, 2.46596], [-76.645131, 2.468401], [-76.646868, 2.468493], [-76.648534, 2.467589], [-76.649297, 2.467622], [-76.64999, 2.468063], [-76.65146, 2.46988], [-76.65141, 2.470975], [-76.651908, 2.472623], [-76.651329, 2.472912], [-76.651269, 2.473445], [-76.652619, 2.474061], [-76.654012, 2.47587], [-76.655009, 2.479373], [-76.655608, 2.47968], [-76.656976, 2.479621], [-76.658331, 2.481343], [-76.661481, 2.480824], [-76.662856, 2.481452], [-76.664018, 2.483013], [-76.666485, 2.483037], [-76.667186, 2.483604], [-76.667262, 2.484374], [-76.669227, 2.485611], [-76.670795, 2.488544], [-76.672649, 2.488505], [-76.67415, 2.488928], [-76.674832, 2.490109], [-76.674879, 2.49159], [-76.676299, 2.493357], [-76.676901, 2.493525], [-76.678213, 2.492666], [-76.679015, 2.493103], [-76.678957, 2.494048], [-76.6775, 2.495234], [-76.677886, 2.496231], [-76.678568, 2.496264], [-76.679525, 2.495649], [-76.681046, 2.49548], [-76.682335, 2.494924], [-76.683976, 2.495771], [-76.684958, 2.494983], [-76.687537, 2.494591], [-76.688447, 2.494962], [-76.689269, 2.496068], [-76.690947, 2.497209], [-76.693311, 2.499461], [-76.698026, 2.500003], [-76.70209, 2.498359], [-76.7044, 2.496878], [-76.705749, 2.49724], [-76.706955, 2.496624], [-76.707519, 2.496742], [-76.708024, 2.497962], [-76.707548, 2.499688], [-76.709764, 2.500424], [-76.711321, 2.502483], [-76.712549, 2.503368], [-76.713242, 2.504799], [-76.714714, 2.505476], [-76.716025, 2.506585], [-76.717145, 2.506845], [-76.719713, 2.510435], [-76.720368, 2.51071], [-76.721044, 2.510387], [-76.722081, 2.510558], [-76.722877, 2.512572], [-76.724257, 2.514294], [-76.725713, 2.515267], [-76.727668, 2.519185], [-76.729459, 2.520227], [-76.731106, 2.522621], [-76.733179, 2.523214], [-76.734233, 2.524225], [-76.734869, 2.526167], [-76.735912, 2.527049], [-76.735586, 2.528284], [-76.736144, 2.529019], [-76.737023, 2.529722], [-76.738296, 2.530107], [-76.741189, 2.533517], [-76.742913, 2.533817], [-76.742839, 2.535195], [-76.744404, 2.536587], [-76.744742, 2.538186], [-76.746082, 2.539858], [-76.747612, 2.539758], [-76.748601, 2.54077], [-76.750165, 2.541588], [-76.750423, 2.54218], [-76.750194, 2.543785], [-76.752099, 2.545961], [-76.752334, 2.546791], [-76.753536, 2.547207], [-76.754279, 2.546937], [-76.754781, 2.545999], [-76.755473, 2.54575], [-76.757046, 2.546186], [-76.759627, 2.548809], [-76.760122, 2.550836], [-76.762579, 2.551416], [-76.762959, 2.55216], [-76.761703, 2.551686]]]]}, "properties": {"FENOMENOS": "Lahar", "LEYENDA_1": " ", "LEYENDA_2": "Amenaza Alta", "VOLCAN": "Puracé", "AMENAZA": "Amenaza Alta", "AREA_KM2": "NULL"}}]}